{
  "type": "FeatureCollection",
  "features": [
    {
      "type": "Feature",
      "properties": {
        "highway": "tertiary",
        "name": "Route Principale"
      },
      "geometry": {
        "type": "LineString",
        "coordinates": [
          [
            -152.2504815,
            -16.4537096
          ],
          [
            -152.2504755,
            -16.4534139
          ],
          [
            -152.2503843,
            -16.4530370
          ],
          [
            -152.2502436,
            -16.4525880
          ],
          [
            -152.2499784,
            -16.4520083
          ],
          [
            -152.2498485,
            -16.4515454
          ],
          [
            -152.2497433,
            -16.4509580
          ],
          [
            -152.2495002,
            -16.4498289
          ],
          [
            -152.2493868,
            -16.4494995
          ],
          [
            -152.2492106,
            -16.4491754
          ],
          [
            -152.2490701,
            -16.4488838
          ],
          [
            -152.2487621,
            -16.4484030
          ],
          [
            -152.2486355,
            -16.4481596
          ],
          [
            -152.2485615,
            -16.4478999
          ],
          [
            -152.2485438,
            -16.4476254
          ],
          [
            -152.2485454,
            -16.4473283
          ],
          [
            -152.2485286,
            -16.4471199
          ],
          [
            -152.2485131,
            -16.4470379
          ],
          [
            -152.2484922,
            -16.4469274
          ],
          [
            -152.2484554,
            -16.4467382
          ],
          [
            -152.2483129,
            -16.4463326
          ],
          [
            -152.2482300,
            -16.4461273
          ],
          [
            -152.2480953,
            -16.4458917
          ],
          [
            -152.2479361,
            -16.4456655
          ],
          [
            -152.2478560,
            -16.4455419
          ],
          [
            -152.2477648,
            -16.4453654
          ],
          [
            -152.2476981,
            -16.4451730
          ],
          [
            -152.2476334,
            -16.4449887
          ],
          [
            -152.2475828,
            -16.4447817
          ],
          [
            -152.2475447,
            -16.4445335
          ],
          [
            -152.2475428,
            -16.4442973
          ],
          [
            -152.2475549,
            -16.4441205
          ],
          [
            -152.2475858,
            -16.4439490
          ],
          [
            -152.2476019,
            -16.4438598
          ],
          [
            -152.2477838,
            -16.4432972
          ],
          [
            -152.2480981,
            -16.4423457
          ],
          [
            -152.2483765,
            -16.4414460
          ],
          [
            -152.2486568,
            -16.4408687
          ],
          [
            -152.2488369,
            -16.4405599
          ],
          [
            -152.2490263,
            -16.4402694
          ],
          [
            -152.2491790,
            -16.4399590
          ],
          [
            -152.2493388,
            -16.4395536
          ],
          [
            -152.2493862,
            -16.4394232
          ],
          [
            -152.2494735,
            -16.4391093
          ],
          [
            -152.2495078,
            -16.4387318
          ],
          [
            -152.2495006,
            -16.4383515
          ],
          [
            -152.2495208,
            -16.4381542
          ],
          [
            -152.2495681,
            -16.4380964
          ],
          [
            -152.2496466,
            -16.4380381
          ],
          [
            -152.2497363,
            -16.4379911
          ],
          [
            -152.2500406,
            -16.4378318
          ],
          [
            -152.2505144,
            -16.4375178
          ],
          [
            -152.2506925,
            -16.4373806
          ],
          [
            -152.2511020,
            -16.4369945
          ]
        ]
      }
    },
    {
      "type": "Feature",
      "properties": {
        "highway": "steps",
        "name": "Traversée Île"
      },
      "geometry": {
        "type": "LineString",
        "coordinates": [
          [
            -152.2479361,
            -16.4456655
          ],
          [
            -152.2479541,
            -16.4456092
          ],
          [
            -152.2479560,
            -16.4455767
          ],
          [
            -152.2479699,
            -16.4455372
          ],
          [
            -152.2479887,
            -16.4455098
          ],
          [
            -152.2480223,
            -16.4455114
          ],
          [
            -152.2480552,
            -16.4455144
          ],
          [
            -152.2480844,
            -16.4454542
          ],
          [
            -152.2481202,
            -16.4454409
          ]
        ]
      }
    },
    {
      "type": "Feature",
      "properties": {
        "highway": "tertiary",
        "name": "Tour Île"
      },
      "geometry": {
        "type": "LineString",
        "coordinates": [
          [
            -152.2705525,
            -16.4484143
          ],
          [
            -152.2701384,
            -16.4483381
          ],
          [
            -152.2694823,
            -16.4483226
          ],
          [
            -152.2693061,
            -16.4482806
          ],
          [
            -152.2692008,
            -16.4482562
          ],
          [
            -152.2689966,
            -16.4481886
          ],
          [
            -152.2687136,
            -16.4480137
          ],
          [
            -152.2683888,
            -16.4478186
          ],
          [
            -152.2679471,
            -16.4473900
          ],
          [
            -152.2678531,
            -16.4470999
          ],
          [
            -152.2679144,
            -16.4467471
          ],
          [
            -152.2680253,
            -16.4462164
          ],
          [
            -152.2681894,
            -16.4454074
          ],
          [
            -152.2684030,
            -16.4449860
          ],
          [
            -152.2686070,
            -16.4445553
          ],
          [
            -152.2686278,
            -16.4443761
          ],
          [
            -152.2685498,
            -16.4441810
          ],
          [
            -152.2683372,
            -16.4438345
          ],
          [
            -152.2679706,
            -16.4433572
          ],
          [
            -152.2674631,
            -16.4427943
          ],
          [
            -152.2670573,
            -16.4420731
          ],
          [
            -152.2666956,
            -16.4414455
          ],
          [
            -152.2664242,
            -16.4410980
          ],
          [
            -152.2661019,
            -16.4408242
          ],
          [
            -152.2659090,
            -16.4407161
          ],
          [
            -152.2657274,
            -16.4406311
          ],
          [
            -152.2655762,
            -16.4405961
          ],
          [
            -152.2654303,
            -16.4406096
          ],
          [
            -152.2651474,
            -16.4406871
          ],
          [
            -152.2649992,
            -16.4407288
          ],
          [
            -152.2648415,
            -16.4407367
          ],
          [
            -152.2645884,
            -16.4406921
          ],
          [
            -152.2643449,
            -16.4406417
          ],
          [
            -152.2639538,
            -16.4405314
          ],
          [
            -152.2635941,
            -16.4404019
          ],
          [
            -152.2631533,
            -16.4401730
          ],
          [
            -152.2630232,
            -16.4400774
          ],
          [
            -152.2624316,
            -16.4396826
          ],
          [
            -152.2621447,
            -16.4394347
          ],
          [
            -152.2619046,
            -16.4391671
          ],
          [
            -152.2614986,
            -16.4383395
          ],
          [
            -152.2613656,
            -16.4379441
          ],
          [
            -152.2613338,
            -16.4376249
          ],
          [
            -152.2613485,
            -16.4371382
          ],
          [
            -152.2613052,
            -16.4368891
          ],
          [
            -152.2611897,
            -16.4366387
          ],
          [
            -152.2609669,
            -16.4363181
          ],
          [
            -152.2606453,
            -16.4360942
          ],
          [
            -152.2604296,
            -16.4359777
          ],
          [
            -152.2601737,
            -16.4358952
          ],
          [
            -152.2599325,
            -16.4358549
          ],
          [
            -152.2596891,
            -16.4358626
          ],
          [
            -152.2594574,
            -16.4359120
          ],
          [
            -152.2591554,
            -16.4360593
          ],
          [
            -152.2588378,
            -16.4362645
          ],
          [
            -152.2584869,
            -16.4364446
          ],
          [
            -152.2580765,
            -16.4365608
          ],
          [
            -152.2579157,
            -16.4365740
          ],
          [
            -152.2576894,
            -16.4365914
          ],
          [
            -152.2574929,
            -16.4366011
          ],
          [
            -152.2571303,
            -16.4365610
          ],
          [
            -152.2565689,
            -16.4364461
          ],
          [
            -152.2562028,
            -16.4363134
          ],
          [
            -152.2558333,
            -16.4361490
          ],
          [
            -152.2553552,
            -16.4359352
          ],
          [
            -152.2548224,
            -16.4357362
          ],
          [
            -152.2543411,
            -16.4355631
          ],
          [
            -152.2541276,
            -16.4355063
          ],
          [
            -152.2539056,
            -16.4354849
          ],
          [
            -152.2530712,
            -16.4354663
          ],
          [
            -152.2524264,
            -16.4354556
          ],
          [
            -152.2522174,
            -16.4354873
          ],
          [
            -152.2520275,
            -16.4355452
          ],
          [
            -152.2518240,
            -16.4356994
          ]
        ]
      }
    },
    {
      "type": "Feature",
      "properties": {
        "highway": "residential",
        "name": ""
      },
      "geometry": {
        "type": "LineString",
        "coordinates": [
          [
            -152.2705525,
            -16.4484143
          ],
          [
            -152.2706679,
            -16.4484037
          ],
          [
            -152.2707511,
            -16.4484149
          ],
          [
            -152.2708309,
            -16.4484436
          ],
          [
            -152.2708842,
            -16.4484787
          ],
          [
            -152.2709574,
            -16.4485569
          ],
          [
            -152.2710222,
            -16.4486606
          ],
          [
            -152.2711107,
            -16.4488187
          ],
          [
            -152.2713609,
            -16.4492392
          ],
          [
            -152.2716366,
            -16.4495896
          ],
          [
            -152.2718338,
            -16.4498147
          ],
          [
            -152.2721048,
            -16.4500822
          ],
          [
            -152.2725373,
            -16.4504642
          ],
          [
            -152.2726818,
            -16.4505439
          ],
          [
            -152.2728566,
            -16.4506602
          ]
        ]
      }
    },
    {
      "type": "Feature",
      "properties": {
        "highway": "residential",
        "name": ""
      },
      "geometry": {
        "type": "LineString",
        "coordinates": [
          [
            -152.2643733,
            -16.4495055
          ],
          [
            -152.2644927,
            -16.4495496
          ],
          [
            -152.2651447,
            -16.4497131
          ],
          [
            -152.2653058,
            -16.4497862
          ],
          [
            -152.2655663,
            -16.4499479
          ],
          [
            -152.2664377,
            -16.4504821
          ],
          [
            -152.2670664,
            -16.4508995
          ],
          [
            -152.2673734,
            -16.4510845
          ],
          [
            -152.2676580,
            -16.4512924
          ],
          [
            -152.2678905,
            -16.4515187
          ],
          [
            -152.2681945,
            -16.4518228
          ],
          [
            -152.2684168,
            -16.4520767
          ]
        ]
      }
    },
    {
      "type": "Feature",
      "properties": {
        "highway": "service",
        "name": ""
      },
      "geometry": {
        "type": "LineString",
        "coordinates": [
          [
            -152.2580765,
            -16.4365608
          ],
          [
            -152.2581256,
            -16.4368481
          ]
        ]
      }
    },
    {
      "type": "Feature",
      "properties": {
        "highway": "service",
        "name": ""
      },
      "geometry": {
        "type": "LineString",
        "coordinates": [
          [
            -152.2639538,
            -16.4405314
          ],
          [
            -152.2640680,
            -16.4402669
          ]
        ]
      }
    },
    {
      "type": "Feature",
      "properties": {
        "highway": "path",
        "name": "Traversée Île"
      },
      "geometry": {
        "type": "LineString",
        "coordinates": [
          [
            -152.2551296,
            -16.4470631
          ],
          [
            -152.2551814,
            -16.4470892
          ],
          [
            -152.2552684,
            -16.4470325
          ],
          [
            -152.2553842,
            -16.4469193
          ],
          [
            -152.2554274,
            -16.4468957
          ],
          [
            -152.2554606,
            -16.4468906
          ],
          [
            -152.2555051,
            -16.4468479
          ],
          [
            -152.2555542,
            -16.4467376
          ],
          [
            -152.2555807,
            -16.4467082
          ],
          [
            -152.2557952,
            -16.4467251
          ],
          [
            -152.2559585,
            -16.4466237
          ],
          [
            -152.2565925,
            -16.4464473
          ],
          [
            -152.2571102,
            -16.4463003
          ],
          [
            -152.2573522,
            -16.4463747
          ],
          [
            -152.2577673,
            -16.4460743
          ],
          [
            -152.2577700,
            -16.4457553
          ],
          [
            -152.2582474,
            -16.4455933
          ],
          [
            -152.2584271,
            -16.4457656
          ],
          [
            -152.2584781,
            -16.4459174
          ],
          [
            -152.2587678,
            -16.4460743
          ],
          [
            -152.2593230,
            -16.4463161
          ],
          [
            -152.2595993,
            -16.4463547
          ],
          [
            -152.2599641,
            -16.4463367
          ],
          [
            -152.2601062,
            -16.4462055
          ],
          [
            -152.2600754,
            -16.4461618
          ],
          [
            -152.2601223,
            -16.4461026
          ],
          [
            -152.2601464,
            -16.4459148
          ],
          [
            -152.2602376,
            -16.4458402
          ],
          [
            -152.2609323,
            -16.4457785
          ],
          [
            -152.2614151,
            -16.4459791
          ],
          [
            -152.2619301,
            -16.4459791
          ],
          [
            -152.2621983,
            -16.4460460
          ],
          [
            -152.2628313,
            -16.4459843
          ],
          [
            -152.2631151,
            -16.4457471
          ],
          [
            -152.2634480,
            -16.4457133
          ],
          [
            -152.2636192,
            -16.4456858
          ],
          [
            -152.2637609,
            -16.4456763
          ],
          [
            -152.2639020,
            -16.4457089
          ],
          [
            -152.2641225,
            -16.4458090
          ],
          [
            -152.2642770,
            -16.4458119
          ],
          [
            -152.2645079,
            -16.4459196
          ],
          [
            -152.2646273,
            -16.4459140
          ],
          [
            -152.2647199,
            -16.4459892
          ],
          [
            -152.2647779,
            -16.4460076
          ],
          [
            -152.2648606,
            -16.4460356
          ],
          [
            -152.2649660,
            -16.4461321
          ],
          [
            -152.2650244,
            -16.4462083
          ],
          [
            -152.2650844,
            -16.4462223
          ],
          [
            -152.2651152,
            -16.4462612
          ],
          [
            -152.2652569,
            -16.4463971
          ],
          [
            -152.2653189,
            -16.4465394
          ],
          [
            -152.2654482,
            -16.4468819
          ],
          [
            -152.2656181,
            -16.4470493
          ],
          [
            -152.2658069,
            -16.4475187
          ],
          [
            -152.2658133,
            -16.4476706
          ],
          [
            -152.2657721,
            -16.4477769
          ],
          [
            -152.2658089,
            -16.4480371
          ],
          [
            -152.2659358,
            -16.4481431
          ],
          [
            -152.2660196,
            -16.4482348
          ],
          [
            -152.2661624,
            -16.4483814
          ],
          [
            -152.2662286,
            -16.4484077
          ],
          [
            -152.2665650,
            -16.4487008
          ],
          [
            -152.2669673,
            -16.4491690
          ],
          [
            -152.2672248,
            -16.4493336
          ],
          [
            -152.2675842,
            -16.4494211
          ],
          [
            -152.2679168,
            -16.4495394
          ],
          [
            -152.2681958,
            -16.4497118
          ],
          [
            -152.2688851,
            -16.4499716
          ],
          [
            -152.2695208,
            -16.4501337
          ],
          [
            -152.2697300,
            -16.4502648
          ],
          [
            -152.2700948,
            -16.4505890
          ],
          [
            -152.2703174,
            -16.4505787
          ],
          [
            -152.2704220,
            -16.4506816
          ],
          [
            -152.2705266,
            -16.4509079
          ],
          [
            -152.2707063,
            -16.4510546
          ],
          [
            -152.2707653,
            -16.4511909
          ],
          [
            -152.2708619,
            -16.4512552
          ],
          [
            -152.2711569,
            -16.4512732
          ],
          [
            -152.2713527,
            -16.4513118
          ]
        ]
      }
    },
    {
      "type": "Feature",
      "properties": {
        "highway": "service",
        "name": ""
      },
      "geometry": {
        "type": "LineString",
        "coordinates": [
          [
            -152.2506925,
            -16.4373806
          ],
          [
            -152.2517704,
            -16.4382525
          ]
        ]
      }
    },
    {
      "type": "Feature",
      "properties": {
        "highway": "footway",
        "name": ""
      },
      "geometry": {
        "type": "LineString",
        "coordinates": [
          [
            -152.2490701,
            -16.4488838
          ],
          [
            -152.2484995,
            -16.4492166
          ]
        ]
      }
    },
    {
      "type": "Feature",
      "properties": {
        "highway": "track",
        "name": ""
      },
      "geometry": {
        "type": "LineString",
        "coordinates": [
          [
            -152.2532404,
            -16.4390776
          ],
          [
            -152.2527688,
            -16.4386683
          ],
          [
            -152.2524768,
            -16.4383452
          ]
        ]
      }
    },
    {
      "type": "Feature",
      "properties": {
        "highway": "track",
        "name": ""
      },
      "geometry": {
        "type": "LineString",
        "coordinates": [
          [
            -152.2514891,
            -16.4365041
          ],
          [
            -152.2515982,
            -16.4365979
          ],
          [
            -152.2516396,
            -16.4367703
          ],
          [
            -152.2516414,
            -16.4370167
          ]
        ]
      }
    },
    {
      "type": "Feature",
      "properties": {
        "highway": "track",
        "name": ""
      },
      "geometry": {
        "type": "LineString",
        "coordinates": [
          [
            -152.2524768,
            -16.4383452
          ],
          [
            -152.2522163,
            -16.4381471
          ],
          [
            -152.2518805,
            -16.4376636
          ],
          [
            -152.2516728,
            -16.4372294
          ],
          [
            -152.2516414,
            -16.4370167
          ]
        ]
      }
    },
    {
      "type": "Feature",
      "properties": {
        "highway": "service",
        "name": ""
      },
      "geometry": {
        "type": "LineString",
        "coordinates": [
          [
            -152.2512686,
            -16.4562834
          ],
          [
            -152.2511612,
            -16.4563475
          ],
          [
            -152.2510755,
            -16.4564279
          ],
          [
            -152.2506775,
            -16.4569667
          ]
        ]
      }
    },
    {
      "type": "Feature",
      "properties": {
        "highway": "path",
        "name": ""
      },
      "geometry": {
        "type": "LineString",
        "coordinates": [
          [
            -152.2416339,
            -16.4753351
          ],
          [
            -152.2421264,
            -16.4753415
          ],
          [
            -152.2426001,
            -16.4754167
          ]
        ]
      }
    },
    {
      "type": "Feature",
      "properties": {
        "highway": "path",
        "name": ""
      },
      "geometry": {
        "type": "LineString",
        "coordinates": [
          [
            -152.2425709,
            -16.4747285
          ],
          [
            -152.2420981,
            -16.4746211
          ],
          [
            -152.2416405,
            -16.4745756
          ],
          [
            -152.2415673,
            -16.4747224
          ],
          [
            -152.2416073,
            -16.4749266
          ],
          [
            -152.2416339,
            -16.4753351
          ],
          [
            -152.2408218,
            -16.4753862
          ]
        ]
      }
    },
    {
      "type": "Feature",
      "properties": {
        "highway": "footway",
        "name": ""
      },
      "geometry": {
        "type": "LineString",
        "coordinates": [
          [
            -152.2438942,
            -16.4280201
          ],
          [
            -152.2437589,
            -16.4277864
          ],
          [
            -152.2436495,
            -16.4276425
          ],
          [
            -152.2434813,
            -16.4274215
          ]
        ]
      }
    },
    {
      "type": "Feature",
      "properties": {
        "highway": "track",
        "name": "Accès Plage"
      },
      "geometry": {
        "type": "LineString",
        "coordinates": [
          [
            -152.2730033,
            -16.4508415
          ],
          [
            -152.2731667,
            -16.4507551
          ],
          [
            -152.2733776,
            -16.4506103
          ],
          [
            -152.2738964,
            -16.4502068
          ],
          [
            -152.2740661,
            -16.4501088
          ],
          [
            -152.2740881,
            -16.4500766
          ],
          [
            -152.2741283,
            -16.4499132
          ]
        ]
      }
    },
    {
      "type": "Feature",
      "properties": {
        "highway": "footway",
        "name": ""
      },
      "geometry": {
        "type": "LineString",
        "coordinates": [
          [
            -152.2485615,
            -16.4478999
          ],
          [
            -152.2483920,
            -16.4479524
          ]
        ]
      }
    },
    {
      "type": "Feature",
      "properties": {
        "highway": "residential",
        "name": ""
      },
      "geometry": {
        "type": "LineString",
        "coordinates": [
          [
            -152.2684168,
            -16.4520767
          ],
          [
            -152.2686078,
            -16.4522507
          ],
          [
            -152.2688076,
            -16.4523524
          ],
          [
            -152.2689006,
            -16.4523734
          ],
          [
            -152.2689792,
            -16.4523181
          ],
          [
            -152.2690895,
            -16.4521908
          ],
          [
            -152.2692135,
            -16.4520489
          ]
        ]
      }
    },
    {
      "type": "Feature",
      "properties": {
        "highway": "footway",
        "name": ""
      },
      "geometry": {
        "type": "LineString",
        "coordinates": [
          [
            -152.2431218,
            -16.4273310
          ],
          [
            -152.2432943,
            -16.4273322
          ],
          [
            -152.2434127,
            -16.4273780
          ],
          [
            -152.2434813,
            -16.4274215
          ]
        ]
      }
    },
    {
      "type": "Feature",
      "properties": {
        "highway": "track",
        "name": ""
      },
      "geometry": {
        "type": "LineString",
        "coordinates": [
          [
            -152.2738472,
            -16.4525877
          ],
          [
            -152.2739071,
            -16.4523718
          ],
          [
            -152.2738854,
            -16.4522163
          ],
          [
            -152.2738338,
            -16.4520501
          ],
          [
            -152.2737773,
            -16.4517458
          ]
        ]
      }
    },
    {
      "type": "Feature",
      "properties": {
        "highway": "residential",
        "name": ""
      },
      "geometry": {
        "type": "LineString",
        "coordinates": [
          [
            -152.2631533,
            -16.4401730
          ],
          [
            -152.2629011,
            -16.4406027
          ],
          [
            -152.2627938,
            -16.4408599
          ],
          [
            -152.2627777,
            -16.4411866
          ],
          [
            -152.2627723,
            -16.4414773
          ],
          [
            -152.2627267,
            -16.4417834
          ]
        ]
      }
    },
    {
      "type": "Feature",
      "properties": {
        "highway": "track",
        "name": ""
      },
      "geometry": {
        "type": "LineString",
        "coordinates": [
          [
            -152.2566565,
            -16.4536041
          ],
          [
            -152.2566032,
            -16.4533646
          ],
          [
            -152.2564772,
            -16.4529967
          ],
          [
            -152.2564879,
            -16.4528938
          ],
          [
            -152.2565335,
            -16.4528218
          ],
          [
            -152.2566354,
            -16.4527601
          ],
          [
            -152.2566623,
            -16.4527138
          ],
          [
            -152.2566381,
            -16.4526417
          ],
          [
            -152.2565657,
            -16.4525311
          ],
          [
            -152.2565281,
            -16.4524359
          ],
          [
            -152.2563699,
            -16.4522533
          ],
          [
            -152.2563109,
            -16.4520578
          ],
          [
            -152.2563779,
            -16.4519318
          ],
          [
            -152.2562626,
            -16.4518057
          ]
        ]
      }
    },
    {
      "type": "Feature",
      "properties": {
        "highway": "track",
        "name": ""
      },
      "geometry": {
        "type": "LineString",
        "coordinates": [
          [
            -152.2582661,
            -16.4529302
          ],
          [
            -152.2581857,
            -16.4527704
          ],
          [
            -152.2580302,
            -16.4520424
          ],
          [
            -152.2579846,
            -16.4518443
          ],
          [
            -152.2580677,
            -16.4515793
          ],
          [
            -152.2581026,
            -16.4512244
          ],
          [
            -152.2580034,
            -16.4508642
          ]
        ]
      }
    },
    {
      "type": "Feature",
      "properties": {
        "highway": "service",
        "name": ""
      },
      "geometry": {
        "type": "LineString",
        "coordinates": [
          [
            -152.2608585,
            -16.4510213
          ],
          [
            -152.2607982,
            -16.4509157
          ],
          [
            -152.2607204,
            -16.4508976
          ],
          [
            -152.2603181,
            -16.4510121
          ],
          [
            -152.2601880,
            -16.4510108
          ],
          [
            -152.2601156,
            -16.4509620
          ],
          [
            -152.2601129,
            -16.4508861
          ],
          [
            -152.2601786,
            -16.4508449
          ],
          [
            -152.2602872,
            -16.4508140
          ]
        ]
      }
    },
    {
      "type": "Feature",
      "properties": {
        "highway": "service",
        "name": ""
      },
      "geometry": {
        "type": "LineString",
        "coordinates": [
          [
            -152.2678905,
            -16.4515187
          ],
          [
            -152.2681006,
            -16.4513002
          ],
          [
            -152.2683325,
            -16.4511240
          ],
          [
            -152.2684036,
            -16.4511009
          ],
          [
            -152.2685726,
            -16.4509002
          ]
        ]
      }
    },
    {
      "type": "Feature",
      "properties": {
        "highway": "service",
        "name": ""
      },
      "geometry": {
        "type": "LineString",
        "coordinates": [
          [
            -152.2692135,
            -16.4520489
          ],
          [
            -152.2691164,
            -16.4519789
          ],
          [
            -152.2689971,
            -16.4519056
          ]
        ]
      }
    },
    {
      "type": "Feature",
      "properties": {
        "highway": "service",
        "name": ""
      },
      "geometry": {
        "type": "LineString",
        "coordinates": [
          [
            -152.2493291,
            -16.4441424
          ],
          [
            -152.2491735,
            -16.4441476
          ],
          [
            -152.2490528,
            -16.4441218
          ],
          [
            -152.2488087,
            -16.4441244
          ],
          [
            -152.2486827,
            -16.4441321
          ],
          [
            -152.2484815,
            -16.4439777
          ],
          [
            -152.2483555,
            -16.4439443
          ],
          [
            -152.2480256,
            -16.4439803
          ],
          [
            -152.2477976,
            -16.4439469
          ],
          [
            -152.2475858,
            -16.4439490
          ]
        ]
      }
    },
    {
      "type": "Feature",
      "properties": {
        "highway": "service",
        "name": ""
      },
      "geometry": {
        "type": "LineString",
        "coordinates": [
          [
            -152.2574929,
            -16.4366011
          ],
          [
            -152.2575344,
            -16.4368919
          ]
        ]
      }
    },
    {
      "type": "Feature",
      "properties": {
        "highway": "path",
        "name": ""
      },
      "geometry": {
        "type": "LineString",
        "coordinates": [
          [
            -152.2604093,
            -16.4500333
          ],
          [
            -152.2605488,
            -16.4501774
          ],
          [
            -152.2607312,
            -16.4502983
          ],
          [
            -152.2608840,
            -16.4504423
          ]
        ]
      }
    },
    {
      "type": "Feature",
      "properties": {
        "highway": "service",
        "name": ""
      },
      "geometry": {
        "type": "LineString",
        "coordinates": [
          [
            -152.2610879,
            -16.4508642
          ],
          [
            -152.2610182,
            -16.4506893
          ],
          [
            -152.2609323,
            -16.4505710
          ],
          [
            -152.2608840,
            -16.4504423
          ]
        ]
      }
    },
    {
      "type": "Feature",
      "properties": {
        "highway": "service",
        "name": ""
      },
      "geometry": {
        "type": "LineString",
        "coordinates": [
          [
            -152.2601880,
            -16.4510108
          ],
          [
            -152.2600150,
            -16.4510108
          ],
          [
            -152.2598809,
            -16.4508977
          ],
          [
            -152.2596234,
            -16.4506507
          ],
          [
            -152.2595322,
            -16.4506224
          ],
          [
            -152.2594249,
            -16.4506404
          ],
          [
            -152.2593498,
            -16.4505684
          ],
          [
            -152.2593606,
            -16.4504526
          ],
          [
            -152.2594115,
            -16.4503755
          ],
          [
            -152.2595832,
            -16.4503137
          ],
          [
            -152.2598568,
            -16.4502623
          ]
        ]
      }
    },
    {
      "type": "Feature",
      "properties": {
        "highway": "path",
        "name": ""
      },
      "geometry": {
        "type": "LineString",
        "coordinates": [
          [
            -152.2739071,
            -16.4523718
          ],
          [
            -152.2738411,
            -16.4523141
          ],
          [
            -152.2738057,
            -16.4522458
          ],
          [
            -152.2737519,
            -16.4521663
          ]
        ]
      }
    },
    {
      "type": "Feature",
      "properties": {
        "highway": "residential",
        "name": ""
      },
      "geometry": {
        "type": "LineString",
        "coordinates": [
          [
            -152.2728566,
            -16.4506602
          ],
          [
            -152.2731094,
            -16.4503882
          ],
          [
            -152.2734743,
            -16.4499819
          ],
          [
            -152.2739012,
            -16.4495569
          ],
          [
            -152.2742520,
            -16.4491268
          ],
          [
            -152.2744152,
            -16.4488211
          ],
          [
            -152.2745488,
            -16.4485500
          ]
        ]
      }
    },
    {
      "type": "Feature",
      "properties": {
        "highway": "service",
        "name": ""
      },
      "geometry": {
        "type": "LineString",
        "coordinates": [
          [
            -152.2572529,
            -16.4533954
          ],
          [
            -152.2571880,
            -16.4532244
          ],
          [
            -152.2571987,
            -16.4531382
          ],
          [
            -152.2572416,
            -16.4530186
          ],
          [
            -152.2572309,
            -16.4529479
          ],
          [
            -152.2571410,
            -16.4527897
          ],
          [
            -152.2570767,
            -16.4527343
          ],
          [
            -152.2570123,
            -16.4527395
          ]
        ]
      }
    },
    {
      "type": "Feature",
      "properties": {
        "highway": "service",
        "name": ""
      },
      "geometry": {
        "type": "LineString",
        "coordinates": [
          [
            -152.2579157,
            -16.4365740
          ],
          [
            -152.2579068,
            -16.4368994
          ],
          [
            -152.2579229,
            -16.4370267
          ]
        ]
      }
    },
    {
      "type": "Feature",
      "properties": {
        "highway": "path",
        "name": ""
      },
      "geometry": {
        "type": "LineString",
        "coordinates": [
          [
            -152.2486827,
            -16.4441321
          ],
          [
            -152.2486539,
            -16.4442823
          ],
          [
            -152.2487734,
            -16.4443643
          ],
          [
            -152.2488867,
            -16.4444460
          ],
          [
            -152.2491065,
            -16.4445258
          ],
          [
            -152.2493904,
            -16.4444827
          ],
          [
            -152.2496224,
            -16.4443865
          ],
          [
            -152.2496697,
            -16.4444562
          ],
          [
            -152.2495795,
            -16.4445508
          ],
          [
            -152.2493753,
            -16.4447498
          ],
          [
            -152.2491480,
            -16.4448699
          ],
          [
            -152.2490189,
            -16.4450193
          ],
          [
            -152.2490026,
            -16.4452509
          ],
          [
            -152.2489669,
            -16.4454164
          ],
          [
            -152.2488944,
            -16.4455103
          ],
          [
            -152.2488635,
            -16.4455616
          ]
        ]
      }
    },
    {
      "type": "Feature",
      "properties": {
        "highway": "path",
        "name": "Traversée Île"
      },
      "geometry": {
        "type": "LineString",
        "coordinates": [
          [
            -152.2488635,
            -16.4455616
          ],
          [
            -152.2488914,
            -16.4456404
          ],
          [
            -152.2490210,
            -16.4457079
          ],
          [
            -152.2490933,
            -16.4456935
          ],
          [
            -152.2491962,
            -16.4456444
          ],
          [
            -152.2492555,
            -16.4456703
          ],
          [
            -152.2494375,
            -16.4458487
          ],
          [
            -152.2495319,
            -16.4458127
          ],
          [
            -152.2496410,
            -16.4458527
          ],
          [
            -152.2496837,
            -16.4458494
          ],
          [
            -152.2497420,
            -16.4458450
          ],
          [
            -152.2498597,
            -16.4458645
          ],
          [
            -152.2499312,
            -16.4458984
          ],
          [
            -152.2500352,
            -16.4458974
          ],
          [
            -152.2501446,
            -16.4459408
          ],
          [
            -152.2503201,
            -16.4458918
          ],
          [
            -152.2503849,
            -16.4459063
          ],
          [
            -152.2504726,
            -16.4459332
          ],
          [
            -152.2505653,
            -16.4459863
          ],
          [
            -152.2506097,
            -16.4460505
          ],
          [
            -152.2507153,
            -16.4461205
          ],
          [
            -152.2507844,
            -16.4461511
          ],
          [
            -152.2509118,
            -16.4461792
          ],
          [
            -152.2510680,
            -16.4461630
          ],
          [
            -152.2511439,
            -16.4462080
          ],
          [
            -152.2513281,
            -16.4462275
          ],
          [
            -152.2514441,
            -16.4461778
          ],
          [
            -152.2515762,
            -16.4462064
          ],
          [
            -152.2516041,
            -16.4462483
          ],
          [
            -152.2516780,
            -16.4462718
          ],
          [
            -152.2517896,
            -16.4462971
          ],
          [
            -152.2519282,
            -16.4463059
          ],
          [
            -152.2521381,
            -16.4462550
          ],
          [
            -152.2522996,
            -16.4462195
          ],
          [
            -152.2524257,
            -16.4462646
          ],
          [
            -152.2525306,
            -16.4462575
          ],
          [
            -152.2526326,
            -16.4463124
          ],
          [
            -152.2528894,
            -16.4463258
          ],
          [
            -152.2530121,
            -16.4464276
          ],
          [
            -152.2531047,
            -16.4464728
          ],
          [
            -152.2531539,
            -16.4464967
          ],
          [
            -152.2532269,
            -16.4465680
          ],
          [
            -152.2533116,
            -16.4465843
          ],
          [
            -152.2534988,
            -16.4466006
          ],
          [
            -152.2536144,
            -16.4467219
          ],
          [
            -152.2536696,
            -16.4467910
          ],
          [
            -152.2537447,
            -16.4467904
          ],
          [
            -152.2538066,
            -16.4468712
          ],
          [
            -152.2538382,
            -16.4469175
          ],
          [
            -152.2538725,
            -16.4469573
          ],
          [
            -152.2538917,
            -16.4469830
          ],
          [
            -152.2539494,
            -16.4470216
          ],
          [
            -152.2540029,
            -16.4470751
          ],
          [
            -152.2541191,
            -16.4470685
          ],
          [
            -152.2541853,
            -16.4470178
          ],
          [
            -152.2542222,
            -16.4469679
          ],
          [
            -152.2542581,
            -16.4469377
          ],
          [
            -152.2543481,
            -16.4469336
          ],
          [
            -152.2544767,
            -16.4469525
          ],
          [
            -152.2546054,
            -16.4469515
          ],
          [
            -152.2546645,
            -16.4469665
          ],
          [
            -152.2546990,
            -16.4469782
          ],
          [
            -152.2547498,
            -16.4470004
          ],
          [
            -152.2548314,
            -16.4470164
          ],
          [
            -152.2548972,
            -16.4470725
          ],
          [
            -152.2549728,
            -16.4470561
          ],
          [
            -152.2550180,
            -16.4470905
          ],
          [
            -152.2550911,
            -16.4470905
          ],
          [
            -152.2551296,
            -16.4470631
          ]
        ]
      }
    },
    {
      "type": "Feature",
      "properties": {
        "highway": "path",
        "name": ""
      },
      "geometry": {
        "type": "LineString",
        "coordinates": [
          [
            -152.2543481,
            -16.4469336
          ],
          [
            -152.2542705,
            -16.4468940
          ],
          [
            -152.2541783,
            -16.4468813
          ]
        ]
      }
    },
    {
      "type": "Feature",
      "properties": {
        "highway": "service",
        "name": ""
      },
      "geometry": {
        "type": "LineString",
        "coordinates": [
          [
            -152.2692135,
            -16.4520489
          ],
          [
            -152.2693865,
            -16.4518346
          ],
          [
            -152.2693796,
            -16.4517682
          ],
          [
            -152.2692938,
            -16.4517219
          ]
        ]
      }
    },
    {
      "type": "Feature",
      "properties": {
        "highway": "track",
        "name": ""
      },
      "geometry": {
        "type": "LineString",
        "coordinates": [
          [
            -152.2436778,
            -16.4276420
          ],
          [
            -152.2436495,
            -16.4276425
          ],
          [
            -152.2429576,
            -16.4276688
          ],
          [
            -152.2426981,
            -16.4277369
          ],
          [
            -152.2425923,
            -16.4277923
          ],
          [
            -152.2424296,
            -16.4278978
          ],
          [
            -152.2423775,
            -16.4279367
          ],
          [
            -152.2423362,
            -16.4279511
          ],
          [
            -152.2422765,
            -16.4279524
          ],
          [
            -152.2422251,
            -16.4279420
          ],
          [
            -152.2421830,
            -16.4279272
          ],
          [
            -152.2421526,
            -16.4279134
          ],
          [
            -152.2421020,
            -16.4278937
          ],
          [
            -152.2419552,
            -16.4278285
          ],
          [
            -152.2419172,
            -16.4278134
          ],
          [
            -152.2418140,
            -16.4277745
          ],
          [
            -152.2417405,
            -16.4277421
          ],
          [
            -152.2416686,
            -16.4277092
          ],
          [
            -152.2415907,
            -16.4276813
          ],
          [
            -152.2415114,
            -16.4276590
          ],
          [
            -152.2414173,
            -16.4276417
          ],
          [
            -152.2412849,
            -16.4276142
          ],
          [
            -152.2411714,
            -16.4275959
          ],
          [
            -152.2404619,
            -16.4275360
          ],
          [
            -152.2403140,
            -16.4275185
          ],
          [
            -152.2401239,
            -16.4275049
          ],
          [
            -152.2399792,
            -16.4274994
          ],
          [
            -152.2398358,
            -16.4274986
          ],
          [
            -152.2397069,
            -16.4274995
          ],
          [
            -152.2395861,
            -16.4274956
          ],
          [
            -152.2394010,
            -16.4274892
          ],
          [
            -152.2391947,
            -16.4274817
          ],
          [
            -152.2390523,
            -16.4274766
          ],
          [
            -152.2389289,
            -16.4274745
          ],
          [
            -152.2388010,
            -16.4274724
          ],
          [
            -152.2385900,
            -16.4274650
          ],
          [
            -152.2384642,
            -16.4274655
          ],
          [
            -152.2383048,
            -16.4274617
          ],
          [
            -152.2381376,
            -16.4274523
          ],
          [
            -152.2379815,
            -16.4274448
          ],
          [
            -152.2378944,
            -16.4274500
          ],
          [
            -152.2378252,
            -16.4274664
          ],
          [
            -152.2377682,
            -16.4274913
          ],
          [
            -152.2376790,
            -16.4275376
          ],
          [
            -152.2375902,
            -16.4275941
          ],
          [
            -152.2374486,
            -16.4276776
          ],
          [
            -152.2372459,
            -16.4277972
          ],
          [
            -152.2370856,
            -16.4279005
          ],
          [
            -152.2368936,
            -16.4280222
          ],
          [
            -152.2367617,
            -16.4281155
          ],
          [
            -152.2367306,
            -16.4281376
          ],
          [
            -152.2365697,
            -16.4282608
          ],
          [
            -152.2364041,
            -16.4283861
          ],
          [
            -152.2362833,
            -16.4284821
          ],
          [
            -152.2361470,
            -16.4286074
          ],
          [
            -152.2360272,
            -16.4287278
          ],
          [
            -152.2359081,
            -16.4288442
          ],
          [
            -152.2358301,
            -16.4289369
          ],
          [
            -152.2357496,
            -16.4290349
          ],
          [
            -152.2356045,
            -16.4292462
          ],
          [
            -152.2354406,
            -16.4295030
          ],
          [
            -152.2352888,
            -16.4297531
          ],
          [
            -152.2350710,
            -16.4301207
          ],
          [
            -152.2349604,
            -16.4303263
          ],
          [
            -152.2348591,
            -16.4305464
          ],
          [
            -152.2348009,
            -16.4306977
          ],
          [
            -152.2347559,
            -16.4308189
          ],
          [
            -152.2347158,
            -16.4309566
          ],
          [
            -152.2346937,
            -16.4310637
          ],
          [
            -152.2346764,
            -16.4311398
          ],
          [
            -152.2346455,
            -16.4312495
          ],
          [
            -152.2346235,
            -16.4313157
          ],
          [
            -152.2345835,
            -16.4315577
          ],
          [
            -152.2345515,
            -16.4317102
          ],
          [
            -152.2345235,
            -16.4318188
          ],
          [
            -152.2345048,
            -16.4319273
          ],
          [
            -152.2344803,
            -16.4320248
          ],
          [
            -152.2344470,
            -16.4321721
          ],
          [
            -152.2344333,
            -16.4322648
          ],
          [
            -152.2344168,
            -16.4323771
          ],
          [
            -152.2343905,
            -16.4325631
          ],
          [
            -152.2343770,
            -16.4326919
          ],
          [
            -152.2343658,
            -16.4328041
          ],
          [
            -152.2343508,
            -16.4329064
          ],
          [
            -152.2343384,
            -16.4330123
          ],
          [
            -152.2343271,
            -16.4331012
          ],
          [
            -152.2343115,
            -16.4331800
          ],
          [
            -152.2342990,
            -16.4332445
          ],
          [
            -152.2342785,
            -16.4333446
          ],
          [
            -152.2342605,
            -16.4334576
          ],
          [
            -152.2342402,
            -16.4335878
          ],
          [
            -152.2342307,
            -16.4336795
          ],
          [
            -152.2342174,
            -16.4337935
          ],
          [
            -152.2341962,
            -16.4339001
          ],
          [
            -152.2341700,
            -16.4340571
          ],
          [
            -152.2341288,
            -16.4342517
          ],
          [
            -152.2341109,
            -16.4343756
          ],
          [
            -152.2340919,
            -16.4344951
          ],
          [
            -152.2340549,
            -16.4346783
          ],
          [
            -152.2340064,
            -16.4348684
          ],
          [
            -152.2339500,
            -16.4350532
          ],
          [
            -152.2338920,
            -16.4352691
          ],
          [
            -152.2338431,
            -16.4354890
          ],
          [
            -152.2337870,
            -16.4357569
          ],
          [
            -152.2337590,
            -16.4359661
          ],
          [
            -152.2337339,
            -16.4362040
          ],
          [
            -152.2337147,
            -16.4363958
          ],
          [
            -152.2336929,
            -16.4365243
          ],
          [
            -152.2336470,
            -16.4366912
          ],
          [
            -152.2336008,
            -16.4368509
          ],
          [
            -152.2335449,
            -16.4371072
          ],
          [
            -152.2335255,
            -16.4373056
          ],
          [
            -152.2335152,
            -16.4374224
          ],
          [
            -152.2334789,
            -16.4375634
          ],
          [
            -152.2334464,
            -16.4377222
          ],
          [
            -152.2334194,
            -16.4378934
          ],
          [
            -152.2333422,
            -16.4382806
          ],
          [
            -152.2333162,
            -16.4384287
          ],
          [
            -152.2333078,
            -16.4384956
          ],
          [
            -152.2332966,
            -16.4385571
          ],
          [
            -152.2332976,
            -16.4386303
          ],
          [
            -152.2332808,
            -16.4387231
          ],
          [
            -152.2332416,
            -16.4389011
          ],
          [
            -152.2332148,
            -16.4390290
          ],
          [
            -152.2331729,
            -16.4392520
          ],
          [
            -152.2331432,
            -16.4393957
          ],
          [
            -152.2330790,
            -16.4396106
          ],
          [
            -152.2330260,
            -16.4397873
          ],
          [
            -152.2329757,
            -16.4399487
          ],
          [
            -152.2329032,
            -16.4401459
          ],
          [
            -152.2328772,
            -16.4402306
          ],
          [
            -152.2328697,
            -16.4402993
          ],
          [
            -152.2328613,
            -16.4403671
          ],
          [
            -152.2328316,
            -16.4404795
          ],
          [
            -152.2328102,
            -16.4405589
          ],
          [
            -152.2327758,
            -16.4407302
          ],
          [
            -152.2327409,
            -16.4408561
          ],
          [
            -152.2326986,
            -16.4409791
          ],
          [
            -152.2326530,
            -16.4411085
          ],
          [
            -152.2326251,
            -16.4412110
          ],
          [
            -152.2326074,
            -16.4412806
          ],
          [
            -152.2325851,
            -16.4413832
          ],
          [
            -152.2325693,
            -16.4414545
          ],
          [
            -152.2325321,
            -16.4416323
          ],
          [
            -152.2325069,
            -16.4417848
          ],
          [
            -152.2324921,
            -16.4419115
          ],
          [
            -152.2324577,
            -16.4421336
          ],
          [
            -152.2324307,
            -16.4422915
          ],
          [
            -152.2324130,
            -16.4424280
          ],
          [
            -152.2324102,
            -16.4425208
          ],
          [
            -152.2324102,
            -16.4426439
          ],
          [
            -152.2324111,
            -16.4427688
          ],
          [
            -152.2324186,
            -16.4428464
          ],
          [
            -152.2324446,
            -16.4429026
          ],
          [
            -152.2325042,
            -16.4429686
          ],
          [
            -152.2325590,
            -16.4430096
          ],
          [
            -152.2325981,
            -16.4430435
          ],
          [
            -152.2326102,
            -16.4430747
          ],
          [
            -152.2326176,
            -16.4431176
          ],
          [
            -152.2326195,
            -16.4432630
          ],
          [
            -152.2326288,
            -16.4433700
          ],
          [
            -152.2326409,
            -16.4434842
          ],
          [
            -152.2326548,
            -16.4436332
          ],
          [
            -152.2326641,
            -16.4437295
          ],
          [
            -152.2326781,
            -16.4438704
          ],
          [
            -152.2326874,
            -16.4439748
          ],
          [
            -152.2326995,
            -16.4441434
          ],
          [
            -152.2327171,
            -16.4442718
          ],
          [
            -152.2327367,
            -16.4443726
          ],
          [
            -152.2327571,
            -16.4444761
          ],
          [
            -152.2327757,
            -16.4446590
          ],
          [
            -152.2327971,
            -16.4447874
          ],
          [
            -152.2328176,
            -16.4449150
          ],
          [
            -152.2328343,
            -16.4449766
          ],
          [
            -152.2328622,
            -16.4450542
          ],
          [
            -152.2328725,
            -16.4451023
          ],
          [
            -152.2328976,
            -16.4452522
          ],
          [
            -152.2329394,
            -16.4454690
          ],
          [
            -152.2329655,
            -16.4456643
          ],
          [
            -152.2329776,
            -16.4457660
          ],
          [
            -152.2329831,
            -16.4458721
          ],
          [
            -152.2329971,
            -16.4459872
          ],
          [
            -152.2330231,
            -16.4460996
          ],
          [
            -152.2330724,
            -16.4462923
          ],
          [
            -152.2331096,
            -16.4464457
          ],
          [
            -152.2331450,
            -16.4466277
          ],
          [
            -152.2331720,
            -16.4467142
          ],
          [
            -152.2332584,
            -16.4469702
          ],
          [
            -152.2332882,
            -16.4470255
          ],
          [
            -152.2333226,
            -16.4470701
          ],
          [
            -152.2333418,
            -16.4471165
          ],
          [
            -152.2333432,
            -16.4471610
          ],
          [
            -152.2333406,
            -16.4472332
          ],
          [
            -152.2333552,
            -16.4473600
          ],
          [
            -152.2334101,
            -16.4475607
          ],
          [
            -152.2334235,
            -16.4476334
          ],
          [
            -152.2334361,
            -16.4477070
          ],
          [
            -152.2334621,
            -16.4478016
          ],
          [
            -152.2334928,
            -16.4478738
          ],
          [
            -152.2335393,
            -16.4479916
          ],
          [
            -152.2335579,
            -16.4480487
          ],
          [
            -152.2335654,
            -16.4481022
          ],
          [
            -152.2335621,
            -16.4481285
          ],
          [
            -152.2335514,
            -16.4481566
          ],
          [
            -152.2334631,
            -16.4482699
          ]
        ]
      }
    },
    {
      "type": "Feature",
      "properties": {
        "highway": "track",
        "name": ""
      },
      "geometry": {
        "type": "LineString",
        "coordinates": [
          [
            -152.2332416,
            -16.4389011
          ],
          [
            -152.2332412,
            -16.4389293
          ],
          [
            -152.2332459,
            -16.4389565
          ],
          [
            -152.2332511,
            -16.4389789
          ],
          [
            -152.2332650,
            -16.4390008
          ],
          [
            -152.2332844,
            -16.4390226
          ],
          [
            -152.2333082,
            -16.4390404
          ],
          [
            -152.2333367,
            -16.4390523
          ],
          [
            -152.2333674,
            -16.4390603
          ],
          [
            -152.2334002,
            -16.4390646
          ],
          [
            -152.2334356,
            -16.4390659
          ],
          [
            -152.2334637,
            -16.4390661
          ],
          [
            -152.2334881,
            -16.4390677
          ],
          [
            -152.2335222,
            -16.4390748
          ],
          [
            -152.2335583,
            -16.4390892
          ],
          [
            -152.2335944,
            -16.4391097
          ],
          [
            -152.2336341,
            -16.4391338
          ],
          [
            -152.2336615,
            -16.4391430
          ],
          [
            -152.2336883,
            -16.4391504
          ],
          [
            -152.2337175,
            -16.4391543
          ],
          [
            -152.2337410,
            -16.4391575
          ],
          [
            -152.2337635,
            -16.4391578
          ],
          [
            -152.2337919,
            -16.4391564
          ],
          [
            -152.2338250,
            -16.4391528
          ],
          [
            -152.2338648,
            -16.4391500
          ],
          [
            -152.2339024,
            -16.4391500
          ],
          [
            -152.2339540,
            -16.4391514
          ],
          [
            -152.2339930,
            -16.4391557
          ],
          [
            -152.2340571,
            -16.4391627
          ],
          [
            -152.2341662,
            -16.4391712
          ],
          [
            -152.2342148,
            -16.4391804
          ],
          [
            -152.2342649,
            -16.4392016
          ],
          [
            -152.2343121,
            -16.4392271
          ],
          [
            -152.2343460,
            -16.4392405
          ],
          [
            -152.2343836,
            -16.4392475
          ],
          [
            -152.2344351,
            -16.4392539
          ],
          [
            -152.2345191,
            -16.4392560
          ],
          [
            -152.2346952,
            -16.4392673
          ],
          [
            -152.2348131,
            -16.4392737
          ],
          [
            -152.2349148,
            -16.4392758
          ],
          [
            -152.2349907,
            -16.4392758
          ],
          [
            -152.2350574,
            -16.4392765
          ],
          [
            -152.2351086,
            -16.4392730
          ],
          [
            -152.2351565,
            -16.4392645
          ],
          [
            -152.2351830,
            -16.4392578
          ],
          [
            -152.2352125,
            -16.4392483
          ],
          [
            -152.2352420,
            -16.4392348
          ],
          [
            -152.2352803,
            -16.4392249
          ],
          [
            -152.2353171,
            -16.4392193
          ],
          [
            -152.2353530,
            -16.4392160
          ],
          [
            -152.2353917,
            -16.4392156
          ],
          [
            -152.2354268,
            -16.4392187
          ],
          [
            -152.2354649,
            -16.4392274
          ],
          [
            -152.2355060,
            -16.4392396
          ],
          [
            -152.2355345,
            -16.4392537
          ],
          [
            -152.2355566,
            -16.4392709
          ]
        ]
      }
    },
    {
      "type": "Feature",
      "properties": {
        "highway": "track",
        "name": ""
      },
      "geometry": {
        "type": "LineString",
        "coordinates": [
          [
            -152.2367617,
            -16.4281155
          ],
          [
            -152.2371290,
            -16.4284597
          ],
          [
            -152.2376143,
            -16.4289857
          ],
          [
            -152.2381196,
            -16.4295132
          ],
          [
            -152.2384785,
            -16.4299535
          ],
          [
            -152.2386772,
            -16.4302535
          ]
        ]
      }
    },
    {
      "type": "Feature",
      "properties": {
        "highway": "residential",
        "name": "Tour Île"
      },
      "geometry": {
        "type": "LineString",
        "coordinates": [
          [
            -152.2513839,
            -16.4560116
          ],
          [
            -152.2515605,
            -16.4560762
          ],
          [
            -152.2519322,
            -16.4561657
          ],
          [
            -152.2523608,
            -16.4562139
          ],
          [
            -152.2527717,
            -16.4562145
          ],
          [
            -152.2528661,
            -16.4562116
          ]
        ]
      }
    },
    {
      "type": "Feature",
      "properties": {
        "highway": "tertiary",
        "name": ""
      },
      "geometry": {
        "type": "LineString",
        "coordinates": [
          [
            -152.2528661,
            -16.4562116
          ],
          [
            -152.2528213,
            -16.4565337
          ],
          [
            -152.2527675,
            -16.4566097
          ],
          [
            -152.2526577,
            -16.4566289
          ],
          [
            -152.2517103,
            -16.4565075
          ],
          [
            -152.2515120,
            -16.4564568
          ],
          [
            -152.2513183,
            -16.4563548
          ],
          [
            -152.2512686,
            -16.4562834
          ],
          [
            -152.2512770,
            -16.4561994
          ],
          [
            -152.2513839,
            -16.4560116
          ]
        ]
      }
    },
    {
      "type": "Feature",
      "properties": {
        "highway": "tertiary",
        "name": "Tour Île"
      },
      "geometry": {
        "type": "LineString",
        "coordinates": [
          [
            -152.2504815,
            -16.4537096
          ],
          [
            -152.2503181,
            -16.4545193
          ],
          [
            -152.2503631,
            -16.4549190
          ],
          [
            -152.2505609,
            -16.4552448
          ],
          [
            -152.2509999,
            -16.4556932
          ],
          [
            -152.2513839,
            -16.4560116
          ]
        ]
      }
    },
    {
      "type": "Feature",
      "properties": {
        "highway": "footway",
        "name": ""
      },
      "geometry": {
        "type": "LineString",
        "coordinates": [
          [
            -152.2479808,
            -16.4470618
          ],
          [
            -152.2478925,
            -16.4470659
          ]
        ]
      }
    },
    {
      "type": "Feature",
      "properties": {
        "highway": "footway",
        "name": ""
      },
      "geometry": {
        "type": "LineString",
        "coordinates": [
          [
            -152.2484922,
            -16.4469274
          ],
          [
            -152.2479925,
            -16.4469409
          ],
          [
            -152.2479808,
            -16.4470618
          ],
          [
            -152.2479709,
            -16.4471643
          ]
        ]
      }
    },
    {
      "type": "Feature",
      "properties": {
        "highway": "tertiary",
        "name": "Tour Île"
      },
      "geometry": {
        "type": "LineString",
        "coordinates": [
          [
            -152.2528661,
            -16.4562116
          ],
          [
            -152.2530384,
            -16.4561763
          ],
          [
            -152.2533396,
            -16.4560526
          ],
          [
            -152.2537739,
            -16.4557391
          ],
          [
            -152.2541005,
            -16.4553632
          ],
          [
            -152.2545013,
            -16.4548998
          ],
          [
            -152.2550000,
            -16.4545000
          ],
          [
            -152.2554044,
            -16.4542584
          ],
          [
            -152.2558256,
            -16.4541001
          ],
          [
            -152.2562488,
            -16.4537990
          ],
          [
            -152.2566565,
            -16.4536041
          ],
          [
            -152.2572183,
            -16.4534087
          ],
          [
            -152.2572529,
            -16.4533954
          ],
          [
            -152.2576801,
            -16.4532315
          ],
          [
            -152.2580240,
            -16.4530718
          ],
          [
            -152.2582661,
            -16.4529302
          ],
          [
            -152.2582806,
            -16.4529217
          ],
          [
            -152.2588692,
            -16.4523808
          ],
          [
            -152.2590274,
            -16.4521470
          ],
          [
            -152.2591425,
            -16.4519567
          ],
          [
            -152.2593141,
            -16.4517704
          ],
          [
            -152.2596084,
            -16.4515550
          ],
          [
            -152.2600406,
            -16.4513627
          ],
          [
            -152.2605226,
            -16.4512046
          ],
          [
            -152.2608585,
            -16.4510213
          ],
          [
            -152.2609956,
            -16.4509228
          ],
          [
            -152.2610879,
            -16.4508642
          ],
          [
            -152.2613587,
            -16.4507398
          ],
          [
            -152.2622366,
            -16.4502303
          ],
          [
            -152.2629490,
            -16.4498725
          ],
          [
            -152.2634225,
            -16.4496910
          ],
          [
            -152.2638095,
            -16.4495761
          ],
          [
            -152.2643733,
            -16.4495055
          ],
          [
            -152.2645890,
            -16.4494015
          ],
          [
            -152.2649140,
            -16.4492564
          ],
          [
            -152.2650949,
            -16.4491916
          ],
          [
            -152.2652368,
            -16.4491579
          ],
          [
            -152.2653661,
            -16.4491812
          ],
          [
            -152.2656351,
            -16.4492840
          ],
          [
            -152.2659753,
            -16.4494412
          ],
          [
            -152.2665575,
            -16.4497075
          ],
          [
            -152.2666804,
            -16.4497391
          ],
          [
            -152.2667260,
            -16.4497263
          ],
          [
            -152.2667489,
            -16.4497037
          ],
          [
            -152.2667473,
            -16.4496649
          ],
          [
            -152.2667167,
            -16.4496128
          ],
          [
            -152.2664862,
            -16.4494207
          ],
          [
            -152.2663632,
            -16.4491700
          ],
          [
            -152.2662902,
            -16.4488455
          ],
          [
            -152.2662489,
            -16.4486118
          ],
          [
            -152.2662201,
            -16.4484695
          ],
          [
            -152.2662286,
            -16.4484077
          ],
          [
            -152.2662846,
            -16.4483871
          ],
          [
            -152.2663576,
            -16.4484029
          ],
          [
            -152.2664256,
            -16.4484408
          ],
          [
            -152.2665717,
            -16.4485518
          ],
          [
            -152.2668893,
            -16.4487482
          ],
          [
            -152.2670882,
            -16.4488531
          ],
          [
            -152.2672672,
            -16.4489170
          ],
          [
            -152.2675520,
            -16.4489227
          ],
          [
            -152.2678880,
            -16.4488742
          ],
          [
            -152.2681973,
            -16.4488589
          ],
          [
            -152.2685014,
            -16.4488668
          ],
          [
            -152.2688577,
            -16.4489328
          ],
          [
            -152.2691409,
            -16.4488882
          ],
          [
            -152.2693992,
            -16.4488300
          ],
          [
            -152.2695644,
            -16.4487686
          ],
          [
            -152.2696947,
            -16.4486220
          ],
          [
            -152.2698515,
            -16.4485407
          ],
          [
            -152.2700222,
            -16.4485065
          ],
          [
            -152.2701937,
            -16.4484979
          ],
          [
            -152.2704000,
            -16.4484468
          ],
          [
            -152.2705525,
            -16.4484143
          ]
        ]
      }
    },
    {
      "type": "Feature",
      "properties": {
        "highway": "service",
        "name": ""
      },
      "geometry": {
        "type": "LineString",
        "coordinates": [
          [
            -152.2488369,
            -16.4405599
          ],
          [
            -152.2485047,
            -16.4403552
          ]
        ]
      }
    },
    {
      "type": "Feature",
      "properties": {
        "highway": "service",
        "name": ""
      },
      "geometry": {
        "type": "LineString",
        "coordinates": [
          [
            -152.2493388,
            -16.4395536
          ],
          [
            -152.2492286,
            -16.4395194
          ],
          [
            -152.2488238,
            -16.4394300
          ],
          [
            -152.2487015,
            -16.4393909
          ],
          [
            -152.2486290,
            -16.4393163
          ],
          [
            -152.2487417,
            -16.4385240
          ],
          [
            -152.2488785,
            -16.4384828
          ],
          [
            -152.2490394,
            -16.4385394
          ],
          [
            -152.2495078,
            -16.4387318
          ]
        ]
      }
    },
    {
      "type": "Feature",
      "properties": {
        "highway": "service",
        "name": ""
      },
      "geometry": {
        "type": "LineString",
        "coordinates": [
          [
            -152.2506056,
            -16.4383492
          ],
          [
            -152.2501798,
            -16.4380008
          ],
          [
            -152.2500406,
            -16.4378318
          ]
        ]
      }
    },
    {
      "type": "Feature",
      "properties": {
        "highway": "track",
        "name": "Accès Plage"
      },
      "geometry": {
        "type": "LineString",
        "coordinates": [
          [
            -152.2728566,
            -16.4506602
          ],
          [
            -152.2730033,
            -16.4508415
          ]
        ]
      }
    },
    {
      "type": "Feature",
      "properties": {
        "highway": "track",
        "name": ""
      },
      "geometry": {
        "type": "LineString",
        "coordinates": [
          [
            -152.2730033,
            -16.4508415
          ],
          [
            -152.2730494,
            -16.4509605
          ],
          [
            -152.2732113,
            -16.4511199
          ],
          [
            -152.2733429,
            -16.4512771
          ],
          [
            -152.2734249,
            -16.4513914
          ],
          [
            -152.2735763,
            -16.4515613
          ],
          [
            -152.2737773,
            -16.4517458
          ],
          [
            -152.2739746,
            -16.4518647
          ]
        ]
      }
    },
    {
      "type": "Feature",
      "properties": {
        "highway": "tertiary",
        "name": "Route Principale"
      },
      "geometry": {
        "type": "LineString",
        "coordinates": [
          [
            -152.2511020,
            -16.4369945
          ],
          [
            -152.2511447,
            -16.4369527
          ]
        ]
      }
    },
    {
      "type": "Feature",
      "properties": {
        "highway": "tertiary",
        "name": "Route Principale"
      },
      "geometry": {
        "type": "LineString",
        "coordinates": [
          [
            -152.2511447,
            -16.4369527
          ],
          [
            -152.2514278,
            -16.4366208
          ],
          [
            -152.2514891,
            -16.4365041
          ],
          [
            -152.2515882,
            -16.4362406
          ],
          [
            -152.2516893,
            -16.4359608
          ],
          [
            -152.2517639,
            -16.4357824
          ],
          [
            -152.2518240,
            -16.4356994
          ]
        ]
      }
    },
    {
      "type": "Feature",
      "properties": {
        "highway": "path",
        "name": ""
      },
      "geometry": {
        "type": "LineString",
        "coordinates": [
          [
            -152.2571102,
            -16.4463003
          ],
          [
            -152.2572416,
            -16.4461541
          ],
          [
            -152.2573382,
            -16.4458711
          ],
          [
            -152.2574776,
            -16.4457065
          ],
          [
            -152.2574669,
            -16.4454544
          ],
          [
            -152.2574830,
            -16.4453669
          ],
          [
            -152.2576600,
            -16.4451560
          ],
          [
            -152.2578800,
            -16.4450633
          ]
        ]
      }
    },
    {
      "type": "Feature",
      "properties": {
        "highway": "path",
        "name": ""
      },
      "geometry": {
        "type": "LineString",
        "coordinates": [
          [
            -152.2485131,
            -16.4470379
          ],
          [
            -152.2486988,
            -16.4469850
          ],
          [
            -152.2488838,
            -16.4468358
          ],
          [
            -152.2489348,
            -16.4467226
          ],
          [
            -152.2490448,
            -16.4467149
          ],
          [
            -152.2491601,
            -16.4467638
          ],
          [
            -152.2492647,
            -16.4467252
          ],
          [
            -152.2493479,
            -16.4466017
          ],
          [
            -152.2493935,
            -16.4464962
          ],
          [
            -152.2494578,
            -16.4464010
          ],
          [
            -152.2495919,
            -16.4461541
          ],
          [
            -152.2496510,
            -16.4461284
          ],
          [
            -152.2497019,
            -16.4460306
          ],
          [
            -152.2496831,
            -16.4459123
          ],
          [
            -152.2496837,
            -16.4458494
          ]
        ]
      }
    },
    {
      "type": "Feature",
      "properties": {
        "highway": "path",
        "name": ""
      },
      "geometry": {
        "type": "LineString",
        "coordinates": [
          [
            -152.2514695,
            -16.4437179
          ],
          [
            -152.2512576,
            -16.4436922
          ],
          [
            -152.2510913,
            -16.4437411
          ],
          [
            -152.2509894,
            -16.4438388
          ],
          [
            -152.2508982,
            -16.4438543
          ],
          [
            -152.2507963,
            -16.4437951
          ],
          [
            -152.2505790,
            -16.4437848
          ],
          [
            -152.2503644,
            -16.4438491
          ],
          [
            -152.2502598,
            -16.4439134
          ],
          [
            -152.2501472,
            -16.4438028
          ],
          [
            -152.2500184,
            -16.4438671
          ],
          [
            -152.2499272,
            -16.4439572
          ],
          [
            -152.2497797,
            -16.4439700
          ],
          [
            -152.2495919,
            -16.4440061
          ],
          [
            -152.2494847,
            -16.4440138
          ],
          [
            -152.2494176,
            -16.4440961
          ],
          [
            -152.2493291,
            -16.4441424
          ]
        ]
      }
    },
    {
      "type": "Feature",
      "properties": {
        "highway": "path",
        "name": ""
      },
      "geometry": {
        "type": "LineString",
        "coordinates": [
          [
            -152.2555807,
            -16.4467082
          ],
          [
            -152.2553828,
            -16.4465374
          ],
          [
            -152.2551361,
            -16.4464834
          ],
          [
            -152.2550234,
            -16.4463522
          ],
          [
            -152.2548705,
            -16.4460332
          ],
          [
            -152.2547150,
            -16.4457528
          ],
          [
            -152.2546345,
            -16.4455984
          ],
          [
            -152.2545862,
            -16.4453515
          ],
          [
            -152.2544333,
            -16.4450685
          ],
          [
            -152.2542536,
            -16.4448421
          ],
          [
            -152.2535911,
            -16.4440318
          ],
          [
            -152.2532398,
            -16.4437205
          ],
          [
            -152.2531807,
            -16.4435018
          ],
          [
            -152.2530466,
            -16.4434144
          ],
          [
            -152.2528294,
            -16.4433166
          ],
          [
            -152.2523680,
            -16.4429642
          ],
          [
            -152.2522017,
            -16.4428459
          ],
          [
            -152.2520703,
            -16.4424548
          ],
          [
            -152.2520354,
            -16.4421075
          ],
          [
            -152.2518638,
            -16.4418297
          ],
          [
            -152.2517565,
            -16.4413692
          ],
          [
            -152.2515929,
            -16.4409422
          ],
          [
            -152.2513273,
            -16.4406824
          ],
          [
            -152.2512201,
            -16.4404817
          ],
          [
            -152.2511101,
            -16.4403737
          ],
          [
            -152.2510591,
            -16.4401884
          ],
          [
            -152.2507131,
            -16.4397177
          ],
          [
            -152.2505844,
            -16.4394733
          ],
          [
            -152.2504288,
            -16.4393009
          ],
          [
            -152.2503644,
            -16.4391285
          ],
          [
            -152.2502142,
            -16.4388481
          ],
          [
            -152.2500318,
            -16.4387118
          ],
          [
            -152.2500050,
            -16.4383671
          ],
          [
            -152.2499675,
            -16.4381998
          ],
          [
            -152.2497363,
            -16.4379911
          ]
        ]
      }
    }
  ]
}
