{
  "type": "FeatureCollection",
  "features": [
    {
      "type": "Feature",
      "properties": {},
      "geometry": {
        "type": "LineString",
        "coordinates": [
          [
            -152.2587669,
            -16.4172639
          ],
          [
            -152.2589272,
            -16.4173355
          ],
          [
            -152.2590847,
            -16.4173971
          ],
          [
            -152.2591863,
            -16.4174508
          ],
          [
            -152.2593194,
            -16.4174790
          ],
          [
            -152.2594781,
            -16.4175289
          ],
          [
            -152.2594663,
            -16.4175639
          ],
          [
            -152.2595918,
            -16.4176113
          ],
          [
            -152.2596377,
            -16.4176971
          ],
          [
            -152.2597182,
            -16.4175902
          ],
          [
            -152.2598117,
            -16.4176214
          ],
          [
            -152.2598369,
            -16.4177860
          ],
          [
            -152.2599148,
            -16.4178764
          ],
          [
            -152.2599762,
            -16.4177711
          ],
          [
            -152.2600516,
            -16.4176590
          ],
          [
            -152.2601843,
            -16.4177173
          ],
          [
            -152.2604392,
            -16.4178458
          ],
          [
            -152.2606087,
            -16.4178792
          ],
          [
            -152.2607176,
            -16.4179907
          ],
          [
            -152.2608675,
            -16.4179211
          ],
          [
            -152.2610473,
            -16.4179341
          ],
          [
            -152.2611086,
            -16.4179870
          ],
          [
            -152.2612046,
            -16.4179948
          ],
          [
            -152.2612859,
            -16.4180874
          ],
          [
            -152.2614137,
            -16.4180074
          ],
          [
            -152.2613948,
            -16.4181489
          ],
          [
            -152.2613965,
            -16.4182732
          ],
          [
            -152.2614918,
            -16.4182859
          ],
          [
            -152.2614799,
            -16.4181869
          ],
          [
            -152.2615695,
            -16.4182039
          ],
          [
            -152.2616944,
            -16.4182950
          ],
          [
            -152.2618468,
            -16.4182544
          ],
          [
            -152.2619491,
            -16.4183253
          ],
          [
            -152.2620820,
            -16.4182549
          ],
          [
            -152.2622347,
            -16.4182626
          ],
          [
            -152.2623833,
            -16.4184631
          ],
          [
            -152.2624511,
            -16.4186297
          ],
          [
            -152.2625797,
            -16.4187322
          ],
          [
            -152.2625217,
            -16.4187986
          ],
          [
            -152.2623169,
            -16.4186390
          ],
          [
            -152.2623133,
            -16.4185119
          ],
          [
            -152.2621307,
            -16.4184119
          ],
          [
            -152.2620223,
            -16.4183426
          ],
          [
            -152.2618460,
            -16.4184343
          ],
          [
            -152.2620039,
            -16.4184862
          ],
          [
            -152.2621627,
            -16.4185675
          ],
          [
            -152.2622766,
            -16.4186402
          ],
          [
            -152.2621076,
            -16.4187937
          ],
          [
            -152.2620920,
            -16.4188550
          ],
          [
            -152.2619865,
            -16.4187505
          ],
          [
            -152.2619474,
            -16.4188304
          ],
          [
            -152.2619041,
            -16.4189108
          ],
          [
            -152.2617937,
            -16.4188420
          ],
          [
            -152.2618379,
            -16.4190416
          ],
          [
            -152.2617028,
            -16.4192394
          ],
          [
            -152.2614063,
            -16.4191827
          ],
          [
            -152.2615958,
            -16.4195059
          ],
          [
            -152.2616338,
            -16.4198378
          ],
          [
            -152.2616551,
            -16.4204658
          ],
          [
            -152.2616342,
            -16.4207473
          ],
          [
            -152.2616199,
            -16.4210189
          ],
          [
            -152.2616040,
            -16.4213593
          ],
          [
            -152.2615352,
            -16.4218033
          ],
          [
            -152.2614717,
            -16.4220744
          ],
          [
            -152.2612336,
            -16.4230071
          ],
          [
            -152.2610501,
            -16.4234804
          ],
          [
            -152.2608628,
            -16.4237926
          ],
          [
            -152.2607383,
            -16.4240529
          ],
          [
            -152.2605029,
            -16.4243122
          ],
          [
            -152.2601928,
            -16.4241025
          ],
          [
            -152.2599615,
            -16.4238222
          ],
          [
            -152.2597491,
            -16.4238333
          ],
          [
            -152.2596720,
            -16.4236591
          ],
          [
            -152.2594875,
            -16.4234878
          ],
          [
            -152.2593052,
            -16.4231634
          ],
          [
            -152.2592531,
            -16.4229927
          ],
          [
            -152.2591054,
            -16.4227821
          ],
          [
            -152.2591020,
            -16.4224930
          ],
          [
            -152.2588673,
            -16.4216531
          ],
          [
            -152.2588406,
            -16.4212004
          ],
          [
            -152.2589408,
            -16.4199372
          ],
          [
            -152.2590806,
            -16.4195918
          ],
          [
            -152.2592131,
            -16.4194036
          ],
          [
            -152.2594551,
            -16.4192062
          ],
          [
            -152.2595215,
            -16.4190391
          ],
          [
            -152.2595608,
            -16.4187855
          ],
          [
            -152.2596976,
            -16.4186080
          ],
          [
            -152.2597183,
            -16.4184612
          ],
          [
            -152.2598681,
            -16.4183146
          ],
          [
            -152.2598699,
            -16.4182211
          ],
          [
            -152.2598220,
            -16.4181175
          ],
          [
            -152.2598394,
            -16.4180866
          ],
          [
            -152.2597969,
            -16.4179410
          ],
          [
            -152.2596401,
            -16.4180299
          ],
          [
            -152.2595745,
            -16.4179537
          ],
          [
            -152.2594190,
            -16.4179920
          ],
          [
            -152.2592880,
            -16.4181108
          ],
          [
            -152.2592074,
            -16.4182486
          ],
          [
            -152.2591284,
            -16.4183749
          ],
          [
            -152.2590305,
            -16.4185435
          ],
          [
            -152.2588472,
            -16.4188584
          ],
          [
            -152.2587966,
            -16.4189886
          ],
          [
            -152.2586623,
            -16.4190285
          ],
          [
            -152.2585959,
            -16.4187836
          ],
          [
            -152.2585553,
            -16.4186579
          ],
          [
            -152.2585455,
            -16.4184385
          ],
          [
            -152.2585870,
            -16.4183263
          ],
          [
            -152.2585620,
            -16.4181897
          ],
          [
            -152.2584419,
            -16.4180284
          ],
          [
            -152.2583217,
            -16.4179153
          ],
          [
            -152.2584101,
            -16.4179224
          ],
          [
            -152.2584184,
            -16.4178011
          ],
          [
            -152.2583805,
            -16.4176723
          ],
          [
            -152.2585360,
            -16.4176297
          ],
          [
            -152.2585128,
            -16.4175649
          ],
          [
            -152.2582308,
            -16.4175222
          ],
          [
            -152.2582450,
            -16.4173933
          ],
          [
            -152.2583038,
            -16.4172750
          ],
          [
            -152.2583672,
            -16.4173942
          ],
          [
            -152.2585031,
            -16.4173809
          ],
          [
            -152.2586724,
            -16.4173022
          ]
        ]
      }
    },
    {
      "type": "Feature",
      "properties": {},
      "geometry": {
        "type": "LineString",
        "coordinates": [
          [
            -152.2465501,
            -16.4755060
          ],
          [
            -152.2469126,
            -16.4751128
          ],
          [
            -152.2481479,
            -16.4753321
          ],
          [
            -152.2491697,
            -16.4765266
          ],
          [
            -152.2492306,
            -16.4768851
          ],
          [
            -152.2491799,
            -16.4768085
          ],
          [
            -152.2490316,
            -16.4770607
          ],
          [
            -152.2487928,
            -16.4776773
          ],
          [
            -152.2488488,
            -16.4782017
          ],
          [
            -152.2489110,
            -16.4785429
          ],
          [
            -152.2492384,
            -16.4790502
          ],
          [
            -152.2494639,
            -16.4790532
          ],
          [
            -152.2493970,
            -16.4795913
          ],
          [
            -152.2494179,
            -16.4798945
          ],
          [
            -152.2493798,
            -16.4802532
          ],
          [
            -152.2493090,
            -16.4805467
          ],
          [
            -152.2491369,
            -16.4816486
          ],
          [
            -152.2489440,
            -16.4821407
          ],
          [
            -152.2485402,
            -16.4825501
          ],
          [
            -152.2482593,
            -16.4826661
          ],
          [
            -152.2480140,
            -16.4826214
          ],
          [
            -152.2477025,
            -16.4823761
          ],
          [
            -152.2473582,
            -16.4820990
          ],
          [
            -152.2463828,
            -16.4816280
          ],
          [
            -152.2462994,
            -16.4815310
          ],
          [
            -152.2461008,
            -16.4813089
          ],
          [
            -152.2461919,
            -16.4812009
          ],
          [
            -152.2461501,
            -16.4810593
          ],
          [
            -152.2462478,
            -16.4809220
          ],
          [
            -152.2458003,
            -16.4804295
          ],
          [
            -152.2455361,
            -16.4800536
          ],
          [
            -152.2457387,
            -16.4796093
          ],
          [
            -152.2463424,
            -16.4790149
          ],
          [
            -152.2469028,
            -16.4787670
          ],
          [
            -152.2473398,
            -16.4786534
          ],
          [
            -152.2475921,
            -16.4784865
          ],
          [
            -152.2479098,
            -16.4775959
          ],
          [
            -152.2477253,
            -16.4770933
          ],
          [
            -152.2470218,
            -16.4767036
          ],
          [
            -152.2467188,
            -16.4767504
          ],
          [
            -152.2465535,
            -16.4765055
          ],
          [
            -152.2467657,
            -16.4762960
          ],
          [
            -152.2469920,
            -16.4761150
          ],
          [
            -152.2475666,
            -16.4756581
          ],
          [
            -152.2472082,
            -16.4755934
          ],
          [
            -152.2467890,
            -16.4756528
          ]
        ]
      }
    },
    {
      "type": "Feature",
      "properties": {},
      "geometry": {
        "type": "LineString",
        "coordinates": [
          [
            -152.2433010,
            -16.4699685
          ],
          [
            -152.2437844,
            -16.4690149
          ],
          [
            -152.2441303,
            -16.4679617
          ],
          [
            -152.2447128,
            -16.4673488
          ],
          [
            -152.2451091,
            -16.4668513
          ],
          [
            -152.2454679,
            -16.4668002
          ],
          [
            -152.2452180,
            -16.4670789
          ],
          [
            -152.2448076,
            -16.4679069
          ],
          [
            -152.2448315,
            -16.4683266
          ],
          [
            -152.2447849,
            -16.4686164
          ],
          [
            -152.2445518,
            -16.4694998
          ],
          [
            -152.2444203,
            -16.4701142
          ],
          [
            -152.2443668,
            -16.4703023
          ],
          [
            -152.2442970,
            -16.4706013
          ],
          [
            -152.2442797,
            -16.4711498
          ],
          [
            -152.2442685,
            -16.4713486
          ],
          [
            -152.2442302,
            -16.4714598
          ],
          [
            -152.2441683,
            -16.4718436
          ],
          [
            -152.2439049,
            -16.4725116
          ],
          [
            -152.2437290,
            -16.4732829
          ],
          [
            -152.2432756,
            -16.4740388
          ],
          [
            -152.2432574,
            -16.4743632
          ],
          [
            -152.2431874,
            -16.4745154
          ],
          [
            -152.2430895,
            -16.4747165
          ],
          [
            -152.2430584,
            -16.4749810
          ],
          [
            -152.2430274,
            -16.4751946
          ],
          [
            -152.2429485,
            -16.4754191
          ],
          [
            -152.2429112,
            -16.4755476
          ],
          [
            -152.2429231,
            -16.4757636
          ],
          [
            -152.2429935,
            -16.4759765
          ],
          [
            -152.2431177,
            -16.4762640
          ],
          [
            -152.2432545,
            -16.4764773
          ],
          [
            -152.2433609,
            -16.4770810
          ],
          [
            -152.2436394,
            -16.4774101
          ],
          [
            -152.2436892,
            -16.4778358
          ],
          [
            -152.2436020,
            -16.4781490
          ],
          [
            -152.2434883,
            -16.4783468
          ],
          [
            -152.2433310,
            -16.4786294
          ],
          [
            -152.2432552,
            -16.4788073
          ],
          [
            -152.2431252,
            -16.4791474
          ],
          [
            -152.2430301,
            -16.4794169
          ],
          [
            -152.2430314,
            -16.4796243
          ],
          [
            -152.2430335,
            -16.4798017
          ],
          [
            -152.2431136,
            -16.4799642
          ],
          [
            -152.2432038,
            -16.4800893
          ],
          [
            -152.2433099,
            -16.4802344
          ],
          [
            -152.2436684,
            -16.4804520
          ],
          [
            -152.2438356,
            -16.4803747
          ],
          [
            -152.2438890,
            -16.4806654
          ],
          [
            -152.2438565,
            -16.4811170
          ],
          [
            -152.2436902,
            -16.4813626
          ],
          [
            -152.2438049,
            -16.4815631
          ],
          [
            -152.2436516,
            -16.4815000
          ],
          [
            -152.2437491,
            -16.4816897
          ],
          [
            -152.2438370,
            -16.4818666
          ],
          [
            -152.2438469,
            -16.4819859
          ],
          [
            -152.2437688,
            -16.4818660
          ],
          [
            -152.2436405,
            -16.4818159
          ],
          [
            -152.2435802,
            -16.4816608
          ],
          [
            -152.2433366,
            -16.4814319
          ],
          [
            -152.2432539,
            -16.4817100
          ],
          [
            -152.2431082,
            -16.4813951
          ],
          [
            -152.2425713,
            -16.4809697
          ],
          [
            -152.2413067,
            -16.4794843
          ],
          [
            -152.2409575,
            -16.4789385
          ],
          [
            -152.2406139,
            -16.4785212
          ],
          [
            -152.2405840,
            -16.4783534
          ],
          [
            -152.2406653,
            -16.4782711
          ],
          [
            -152.2407656,
            -16.4781126
          ],
          [
            -152.2409310,
            -16.4778281
          ],
          [
            -152.2407966,
            -16.4769079
          ],
          [
            -152.2405723,
            -16.4759004
          ],
          [
            -152.2399325,
            -16.4743399
          ],
          [
            -152.2399008,
            -16.4740139
          ],
          [
            -152.2398465,
            -16.4742787
          ],
          [
            -152.2396465,
            -16.4746161
          ],
          [
            -152.2394587,
            -16.4747838
          ],
          [
            -152.2392726,
            -16.4746414
          ],
          [
            -152.2392718,
            -16.4744572
          ],
          [
            -152.2392628,
            -16.4742984
          ],
          [
            -152.2393618,
            -16.4740879
          ],
          [
            -152.2392557,
            -16.4739518
          ],
          [
            -152.2396874,
            -16.4737947
          ],
          [
            -152.2403607,
            -16.4730601
          ],
          [
            -152.2406860,
            -16.4725374
          ],
          [
            -152.2410416,
            -16.4717593
          ],
          [
            -152.2412947,
            -16.4713258
          ],
          [
            -152.2418742,
            -16.4708061
          ],
          [
            -152.2428550,
            -16.4704544
          ]
        ]
      }
    },
    {
      "type": "Feature",
      "properties": {},
      "geometry": {
        "type": "LineString",
        "coordinates": [
          [
            -152.2528659,
            -16.4566846
          ],
          [
            -152.2514544,
            -16.4565475
          ],
          [
            -152.2511046,
            -16.4567120
          ],
          [
            -152.2508678,
            -16.4568024
          ],
          [
            -152.2505251,
            -16.4566704
          ],
          [
            -152.2498590,
            -16.4548663
          ],
          [
            -152.2498874,
            -16.4532298
          ],
          [
            -152.2493128,
            -16.4516421
          ],
          [
            -152.2486550,
            -16.4501124
          ],
          [
            -152.2483153,
            -16.4490517
          ],
          [
            -152.2481821,
            -16.4489049
          ],
          [
            -152.2483533,
            -16.4485587
          ],
          [
            -152.2482250,
            -16.4483359
          ],
          [
            -152.2479216,
            -16.4473629
          ],
          [
            -152.2478925,
            -16.4470659
          ],
          [
            -152.2479416,
            -16.4465569
          ],
          [
            -152.2476299,
            -16.4458809
          ],
          [
            -152.2472016,
            -16.4454149
          ],
          [
            -152.2472785,
            -16.4452427
          ],
          [
            -152.2471321,
            -16.4447838
          ],
          [
            -152.2471328,
            -16.4438812
          ],
          [
            -152.2472728,
            -16.4436458
          ],
          [
            -152.2474394,
            -16.4431223
          ],
          [
            -152.2474921,
            -16.4429663
          ],
          [
            -152.2478016,
            -16.4421065
          ],
          [
            -152.2479567,
            -16.4415587
          ],
          [
            -152.2481433,
            -16.4406923
          ],
          [
            -152.2485403,
            -16.4392611
          ],
          [
            -152.2486897,
            -16.4383459
          ],
          [
            -152.2491283,
            -16.4379491
          ],
          [
            -152.2492999,
            -16.4380283
          ],
          [
            -152.2498770,
            -16.4377895
          ],
          [
            -152.2504796,
            -16.4374008
          ],
          [
            -152.2506135,
            -16.4371760
          ],
          [
            -152.2508579,
            -16.4370351
          ],
          [
            -152.2510980,
            -16.4369244
          ],
          [
            -152.2514358,
            -16.4364776
          ],
          [
            -152.2513943,
            -16.4357725
          ],
          [
            -152.2515696,
            -16.4355488
          ],
          [
            -152.2520931,
            -16.4353714
          ],
          [
            -152.2525158,
            -16.4353869
          ],
          [
            -152.2528683,
            -16.4353764
          ],
          [
            -152.2530434,
            -16.4352569
          ]
        ]
      }
    },
    {
      "type": "Feature",
      "properties": {},
      "geometry": {
        "type": "LineString",
        "coordinates": [
          [
            -152.2332661,
            -16.4367725
          ],
          [
            -152.2334640,
            -16.4356036
          ],
          [
            -152.2337579,
            -16.4343139
          ],
          [
            -152.2339804,
            -16.4328117
          ],
          [
            -152.2340677,
            -16.4321203
          ],
          [
            -152.2342351,
            -16.4312820
          ],
          [
            -152.2345330,
            -16.4300079
          ],
          [
            -152.2353532,
            -16.4286853
          ],
          [
            -152.2363082,
            -16.4278811
          ],
          [
            -152.2365914,
            -16.4276593
          ],
          [
            -152.2368942,
            -16.4274175
          ],
          [
            -152.2373758,
            -16.4271226
          ],
          [
            -152.2378780,
            -16.4268203
          ],
          [
            -152.2383394,
            -16.4264991
          ],
          [
            -152.2388573,
            -16.4261795
          ],
          [
            -152.2396465,
            -16.4256236
          ],
          [
            -152.2401674,
            -16.4252983
          ],
          [
            -152.2409009,
            -16.4248616
          ],
          [
            -152.2412421,
            -16.4245954
          ],
          [
            -152.2416123,
            -16.4243757
          ],
          [
            -152.2417941,
            -16.4242128
          ],
          [
            -152.2421712,
            -16.4239581
          ],
          [
            -152.2424452,
            -16.4237651
          ],
          [
            -152.2429693,
            -16.4234282
          ],
          [
            -152.2433793,
            -16.4231831
          ],
          [
            -152.2438355,
            -16.4228232
          ],
          [
            -152.2444938,
            -16.4223247
          ],
          [
            -152.2453930,
            -16.4216573
          ],
          [
            -152.2457258,
            -16.4214223
          ],
          [
            -152.2459832,
            -16.4212004
          ],
          [
            -152.2461973,
            -16.4209588
          ],
          [
            -152.2467189,
            -16.4205846
          ],
          [
            -152.2472193,
            -16.4200481
          ],
          [
            -152.2475167,
            -16.4198530
          ],
          [
            -152.2477483,
            -16.4196830
          ],
          [
            -152.2480085,
            -16.4194888
          ],
          [
            -152.2480913,
            -16.4193542
          ],
          [
            -152.2482428,
            -16.4191960
          ],
          [
            -152.2484853,
            -16.4189908
          ],
          [
            -152.2487307,
            -16.4187679
          ],
          [
            -152.2491314,
            -16.4184191
          ],
          [
            -152.2493174,
            -16.4182988
          ],
          [
            -152.2495517,
            -16.4181411
          ],
          [
            -152.2498474,
            -16.4179310
          ],
          [
            -152.2503483,
            -16.4175757
          ],
          [
            -152.2506121,
            -16.4174321
          ],
          [
            -152.2508903,
            -16.4172892
          ],
          [
            -152.2510067,
            -16.4172698
          ],
          [
            -152.2512546,
            -16.4171277
          ],
          [
            -152.2514897,
            -16.4170337
          ],
          [
            -152.2516216,
            -16.4169913
          ],
          [
            -152.2517845,
            -16.4169344
          ],
          [
            -152.2519273,
            -16.4168937
          ],
          [
            -152.2522288,
            -16.4167779
          ],
          [
            -152.2522381,
            -16.4167430
          ],
          [
            -152.2524676,
            -16.4167056
          ],
          [
            -152.2525594,
            -16.4166153
          ],
          [
            -152.2526869,
            -16.4166014
          ],
          [
            -152.2528061,
            -16.4165699
          ],
          [
            -152.2530325,
            -16.4165169
          ],
          [
            -152.2530726,
            -16.4164351
          ],
          [
            -152.2529526,
            -16.4164201
          ],
          [
            -152.2531635,
            -16.4164165
          ],
          [
            -152.2532578,
            -16.4164890
          ],
          [
            -152.2534177,
            -16.4164642
          ],
          [
            -152.2536865,
            -16.4164248
          ],
          [
            -152.2536613,
            -16.4163385
          ],
          [
            -152.2536156,
            -16.4162544
          ]
        ]
      }
    },
    {
      "type": "Feature",
      "properties": {},
      "geometry": {
        "type": "LineString",
        "coordinates": [
          [
            -152.2806482,
            -16.4538388
          ],
          [
            -152.2800722,
            -16.4519051
          ],
          [
            -152.2801871,
            -16.4512089
          ],
          [
            -152.2804486,
            -16.4505940
          ],
          [
            -152.2807097,
            -16.4499067
          ],
          [
            -152.2815713,
            -16.4490697
          ],
          [
            -152.2827963,
            -16.4486001
          ],
          [
            -152.2834397,
            -16.4474753
          ],
          [
            -152.2837714,
            -16.4463659
          ],
          [
            -152.2841926,
            -16.4458970
          ],
          [
            -152.2847295,
            -16.4443932
          ],
          [
            -152.2847489,
            -16.4440561
          ],
          [
            -152.2848927,
            -16.4429081
          ],
          [
            -152.2849296,
            -16.4420387
          ],
          [
            -152.2849023,
            -16.4413746
          ],
          [
            -152.2848942,
            -16.4412061
          ],
          [
            -152.2848686,
            -16.4411261
          ],
          [
            -152.2848575,
            -16.4408239
          ],
          [
            -152.2848233,
            -16.4405275
          ],
          [
            -152.2848194,
            -16.4402750
          ],
          [
            -152.2848054,
            -16.4400566
          ],
          [
            -152.2847802,
            -16.4398511
          ],
          [
            -152.2848731,
            -16.4396735
          ],
          [
            -152.2850362,
            -16.4389831
          ],
          [
            -152.2851269,
            -16.4385005
          ],
          [
            -152.2852079,
            -16.4382489
          ],
          [
            -152.2853601,
            -16.4373156
          ],
          [
            -152.2853879,
            -16.4347923
          ],
          [
            -152.2847213,
            -16.4306236
          ],
          [
            -152.2840152,
            -16.4285025
          ],
          [
            -152.2835806,
            -16.4280875
          ],
          [
            -152.2832612,
            -16.4279133
          ],
          [
            -152.2827188,
            -16.4277398
          ],
          [
            -152.2823674,
            -16.4276831
          ],
          [
            -152.2815948,
            -16.4275372
          ],
          [
            -152.2812673,
            -16.4276104
          ],
          [
            -152.2806428,
            -16.4274195
          ],
          [
            -152.2801499,
            -16.4273827
          ],
          [
            -152.2794743,
            -16.4273350
          ],
          [
            -152.2790780,
            -16.4271866
          ],
          [
            -152.2787346,
            -16.4270860
          ],
          [
            -152.2784402,
            -16.4269324
          ],
          [
            -152.2779873,
            -16.4267807
          ],
          [
            -152.2776512,
            -16.4267079
          ],
          [
            -152.2769519,
            -16.4265306
          ],
          [
            -152.2765514,
            -16.4263654
          ],
          [
            -152.2761670,
            -16.4262405
          ],
          [
            -152.2758454,
            -16.4262381
          ],
          [
            -152.2753262,
            -16.4264038
          ],
          [
            -152.2751451,
            -16.4263653
          ],
          [
            -152.2745437,
            -16.4262287
          ]
        ]
      }
    },
    {
      "type": "Feature",
      "properties": {},
      "geometry": {
        "type": "LineString",
        "coordinates": [
          [
            -152.2887159,
            -16.4263447
          ]
        ]
      }
    },
    {
      "type": "Feature",
      "properties": {},
      "geometry": {
        "type": "LineString",
        "coordinates": [
          [
            -152.2336298,
            -16.4518109
          ],
          [
            -152.2337064,
            -16.4517847
          ],
          [
            -152.2337821,
            -16.4516660
          ],
          [
            -152.2340963,
            -16.4517530
          ],
          [
            -152.2346184,
            -16.4517817
          ],
          [
            -152.2347053,
            -16.4518283
          ],
          [
            -152.2345030,
            -16.4518379
          ],
          [
            -152.2343042,
            -16.4518232
          ],
          [
            -152.2339501,
            -16.4519214
          ],
          [
            -152.2337437,
            -16.4519431
          ],
          [
            -152.2337045,
            -16.4520889
          ]
        ]
      }
    },
    {
      "type": "Feature",
      "properties": {},
      "geometry": {
        "type": "LineString",
        "coordinates": [
          [
            -152.2537036,
            -16.4162558
          ],
          [
            -152.2537916,
            -16.4162797
          ],
          [
            -152.2537595,
            -16.4163491
          ],
          [
            -152.2538439,
            -16.4164299
          ],
          [
            -152.2539560,
            -16.4163806
          ],
          [
            -152.2541228,
            -16.4164295
          ],
          [
            -152.2542432,
            -16.4163805
          ],
          [
            -152.2543095,
            -16.4162934
          ],
          [
            -152.2542956,
            -16.4164570
          ],
          [
            -152.2545506,
            -16.4164044
          ],
          [
            -152.2543896,
            -16.4164228
          ],
          [
            -152.2544929,
            -16.4163688
          ],
          [
            -152.2547453,
            -16.4163713
          ],
          [
            -152.2548228,
            -16.4162807
          ],
          [
            -152.2549684,
            -16.4162332
          ],
          [
            -152.2550180,
            -16.4163233
          ],
          [
            -152.2550459,
            -16.4163647
          ],
          [
            -152.2551328,
            -16.4163306
          ],
          [
            -152.2552189,
            -16.4163829
          ],
          [
            -152.2552105,
            -16.4164079
          ],
          [
            -152.2553368,
            -16.4164663
          ],
          [
            -152.2554316,
            -16.4165457
          ],
          [
            -152.2554515,
            -16.4163489
          ],
          [
            -152.2555734,
            -16.4164831
          ],
          [
            -152.2556997,
            -16.4165649
          ],
          [
            -152.2557544,
            -16.4164628
          ],
          [
            -152.2557440,
            -16.4163839
          ],
          [
            -152.2558879,
            -16.4163594
          ],
          [
            -152.2559689,
            -16.4163812
          ],
          [
            -152.2561181,
            -16.4164165
          ],
          [
            -152.2561753,
            -16.4165159
          ],
          [
            -152.2563102,
            -16.4165114
          ],
          [
            -152.2564319,
            -16.4165859
          ],
          [
            -152.2565677,
            -16.4167181
          ],
          [
            -152.2565983,
            -16.4168485
          ],
          [
            -152.2568187,
            -16.4168625
          ],
          [
            -152.2568221,
            -16.4169618
          ],
          [
            -152.2568768,
            -16.4170725
          ],
          [
            -152.2567893,
            -16.4171168
          ],
          [
            -152.2567517,
            -16.4171340
          ],
          [
            -152.2568084,
            -16.4171875
          ],
          [
            -152.2570010,
            -16.4171820
          ],
          [
            -152.2570099,
            -16.4172754
          ],
          [
            -152.2570948,
            -16.4173161
          ],
          [
            -152.2569869,
            -16.4173562
          ],
          [
            -152.2567734,
            -16.4174300
          ],
          [
            -152.2568175,
            -16.4175024
          ],
          [
            -152.2568243,
            -16.4176850
          ],
          [
            -152.2568928,
            -16.4178490
          ],
          [
            -152.2569157,
            -16.4180121
          ],
          [
            -152.2569727,
            -16.4181685
          ],
          [
            -152.2573264,
            -16.4190580
          ],
          [
            -152.2572677,
            -16.4196282
          ],
          [
            -152.2570860,
            -16.4206407
          ],
          [
            -152.2569807,
            -16.4211473
          ],
          [
            -152.2569437,
            -16.4218228
          ],
          [
            -152.2570651,
            -16.4230463
          ],
          [
            -152.2568760,
            -16.4237928
          ],
          [
            -152.2567776,
            -16.4243831
          ],
          [
            -152.2564154,
            -16.4248750
          ],
          [
            -152.2556314,
            -16.4249906
          ],
          [
            -152.2557575,
            -16.4247706
          ],
          [
            -152.2559109,
            -16.4243210
          ],
          [
            -152.2545671,
            -16.4227317
          ],
          [
            -152.2530412,
            -16.4216898
          ],
          [
            -152.2524693,
            -16.4215367
          ],
          [
            -152.2518476,
            -16.4215217
          ],
          [
            -152.2514968,
            -16.4216545
          ],
          [
            -152.2507297,
            -16.4218114
          ],
          [
            -152.2502750,
            -16.4220147
          ],
          [
            -152.2499841,
            -16.4220924
          ],
          [
            -152.2498371,
            -16.4222281
          ],
          [
            -152.2495010,
            -16.4224039
          ],
          [
            -152.2491544,
            -16.4226725
          ],
          [
            -152.2489319,
            -16.4228659
          ],
          [
            -152.2487644,
            -16.4229922
          ],
          [
            -152.2486544,
            -16.4231205
          ],
          [
            -152.2484728,
            -16.4232550
          ],
          [
            -152.2482494,
            -16.4234350
          ],
          [
            -152.2472983,
            -16.4240529
          ],
          [
            -152.2470548,
            -16.4242348
          ],
          [
            -152.2464995,
            -16.4245813
          ],
          [
            -152.2458692,
            -16.4250252
          ],
          [
            -152.2454532,
            -16.4253836
          ],
          [
            -152.2451721,
            -16.4256403
          ],
          [
            -152.2448980,
            -16.4258710
          ],
          [
            -152.2447278,
            -16.4260238
          ],
          [
            -152.2450280,
            -16.4261497
          ],
          [
            -152.2472264,
            -16.4261996
          ],
          [
            -152.2481605,
            -16.4269796
          ],
          [
            -152.2472886,
            -16.4269784
          ],
          [
            -152.2469084,
            -16.4269661
          ],
          [
            -152.2466545,
            -16.4269615
          ],
          [
            -152.2453413,
            -16.4269282
          ],
          [
            -152.2449073,
            -16.4269056
          ],
          [
            -152.2439246,
            -16.4269035
          ],
          [
            -152.2438722,
            -16.4272473
          ],
          [
            -152.2441527,
            -16.4276616
          ],
          [
            -152.2436699,
            -16.4272250
          ],
          [
            -152.2437903,
            -16.4277819
          ],
          [
            -152.2438222,
            -16.4282406
          ],
          [
            -152.2436267,
            -16.4278578
          ],
          [
            -152.2427276,
            -16.4278065
          ],
          [
            -152.2425518,
            -16.4280445
          ],
          [
            -152.2423752,
            -16.4281166
          ],
          [
            -152.2422511,
            -16.4282490
          ],
          [
            -152.2421435,
            -16.4283595
          ],
          [
            -152.2420138,
            -16.4284458
          ],
          [
            -152.2419114,
            -16.4285356
          ],
          [
            -152.2418174,
            -16.4285570
          ],
          [
            -152.2416717,
            -16.4286820
          ],
          [
            -152.2415155,
            -16.4288041
          ],
          [
            -152.2412477,
            -16.4289522
          ]
        ]
      }
    },
    {
      "type": "Feature",
      "properties": {},
      "geometry": {
        "type": "LineString",
        "coordinates": [
          [
            -152.2411424,
            -16.4291211
          ],
          [
            -152.2409285,
            -16.4292447
          ],
          [
            -152.2405564,
            -16.4295229
          ],
          [
            -152.2403380,
            -16.4297235
          ],
          [
            -152.2402466,
            -16.4298521
          ],
          [
            -152.2399466,
            -16.4300407
          ],
          [
            -152.2399113,
            -16.4301108
          ],
          [
            -152.2397585,
            -16.4301686
          ],
          [
            -152.2393882,
            -16.4303894
          ],
          [
            -152.2387751,
            -16.4306863
          ],
          [
            -152.2386274,
            -16.4307692
          ],
          [
            -152.2385107,
            -16.4308515
          ],
          [
            -152.2383399,
            -16.4309867
          ],
          [
            -152.2382180,
            -16.4311059
          ],
          [
            -152.2379000,
            -16.4312869
          ],
          [
            -152.2377228,
            -16.4314359
          ],
          [
            -152.2374469,
            -16.4317339
          ],
          [
            -152.2374147,
            -16.4318766
          ],
          [
            -152.2373610,
            -16.4319027
          ],
          [
            -152.2372102,
            -16.4320689
          ],
          [
            -152.2371328,
            -16.4322145
          ],
          [
            -152.2370832,
            -16.4323131
          ],
          [
            -152.2369642,
            -16.4324756
          ],
          [
            -152.2368630,
            -16.4327320
          ],
          [
            -152.2367986,
            -16.4328456
          ],
          [
            -152.2367876,
            -16.4329654
          ],
          [
            -152.2366995,
            -16.4330709
          ],
          [
            -152.2367002,
            -16.4331710
          ],
          [
            -152.2365637,
            -16.4333098
          ],
          [
            -152.2364896,
            -16.4334397
          ],
          [
            -152.2364459,
            -16.4336056
          ],
          [
            -152.2364104,
            -16.4338850
          ],
          [
            -152.2363245,
            -16.4340405
          ],
          [
            -152.2363846,
            -16.4343791
          ],
          [
            -152.2362741,
            -16.4345428
          ],
          [
            -152.2362046,
            -16.4346396
          ],
          [
            -152.2361423,
            -16.4347760
          ],
          [
            -152.2359531,
            -16.4350560
          ],
          [
            -152.2357535,
            -16.4356333
          ],
          [
            -152.2357074,
            -16.4357709
          ],
          [
            -152.2356421,
            -16.4360253
          ],
          [
            -152.2355854,
            -16.4362284
          ],
          [
            -152.2355387,
            -16.4363787
          ],
          [
            -152.2355492,
            -16.4365514
          ],
          [
            -152.2354923,
            -16.4367400
          ],
          [
            -152.2354774,
            -16.4368221
          ],
          [
            -152.2354544,
            -16.4369442
          ],
          [
            -152.2354124,
            -16.4373944
          ],
          [
            -152.2353884,
            -16.4374959
          ],
          [
            -152.2354280,
            -16.4376363
          ],
          [
            -152.2355200,
            -16.4377566
          ],
          [
            -152.2354678,
            -16.4379185
          ],
          [
            -152.2354943,
            -16.4380445
          ],
          [
            -152.2355951,
            -16.4383650
          ],
          [
            -152.2355604,
            -16.4385333
          ],
          [
            -152.2355982,
            -16.4387567
          ],
          [
            -152.2355744,
            -16.4390113
          ],
          [
            -152.2355916,
            -16.4392588
          ],
          [
            -152.2356570,
            -16.4395652
          ],
          [
            -152.2356810,
            -16.4398486
          ],
          [
            -152.2357280,
            -16.4399928
          ],
          [
            -152.2358270,
            -16.4402808
          ],
          [
            -152.2358610,
            -16.4404991
          ],
          [
            -152.2358795,
            -16.4407484
          ],
          [
            -152.2360301,
            -16.4411260
          ],
          [
            -152.2360995,
            -16.4414415
          ],
          [
            -152.2361361,
            -16.4417015
          ],
          [
            -152.2360559,
            -16.4422737
          ],
          [
            -152.2361257,
            -16.4426108
          ],
          [
            -152.2361992,
            -16.4429094
          ],
          [
            -152.2362226,
            -16.4432183
          ],
          [
            -152.2362964,
            -16.4434229
          ],
          [
            -152.2362720,
            -16.4436892
          ],
          [
            -152.2361556,
            -16.4438272
          ],
          [
            -152.2362408,
            -16.4441481
          ],
          [
            -152.2364367,
            -16.4444268
          ],
          [
            -152.2365974,
            -16.4448627
          ],
          [
            -152.2381266,
            -16.4463412
          ],
          [
            -152.2386705,
            -16.4467468
          ],
          [
            -152.2389446,
            -16.4468949
          ],
          [
            -152.2391627,
            -16.4470594
          ],
          [
            -152.2395276,
            -16.4472711
          ],
          [
            -152.2397428,
            -16.4473845
          ],
          [
            -152.2400059,
            -16.4476176
          ],
          [
            -152.2401578,
            -16.4477611
          ],
          [
            -152.2404667,
            -16.4482184
          ],
          [
            -152.2410976,
            -16.4485121
          ],
          [
            -152.2408804,
            -16.4486552
          ],
          [
            -152.2407805,
            -16.4487886
          ],
          [
            -152.2406435,
            -16.4490848
          ],
          [
            -152.2406632,
            -16.4492327
          ],
          [
            -152.2404934,
            -16.4492950
          ],
          [
            -152.2405439,
            -16.4493476
          ],
          [
            -152.2406585,
            -16.4494432
          ],
          [
            -152.2409392,
            -16.4494781
          ],
          [
            -152.2409996,
            -16.4499196
          ],
          [
            -152.2407921,
            -16.4507254
          ],
          [
            -152.2402847,
            -16.4514800
          ],
          [
            -152.2394316,
            -16.4514044
          ],
          [
            -152.2378422,
            -16.4504360
          ],
          [
            -152.2369562,
            -16.4503861
          ],
          [
            -152.2365293,
            -16.4503051
          ],
          [
            -152.2360085,
            -16.4500801
          ],
          [
            -152.2350071,
            -16.4499657
          ],
          [
            -152.2345504,
            -16.4499053
          ],
          [
            -152.2342657,
            -16.4497978
          ],
          [
            -152.2337383,
            -16.4496860
          ],
          [
            -152.2336054,
            -16.4498009
          ],
          [
            -152.2334998,
            -16.4498435
          ],
          [
            -152.2334482,
            -16.4497403
          ],
          [
            -152.2334283,
            -16.4496445
          ],
          [
            -152.2334426,
            -16.4494952
          ],
          [
            -152.2334707,
            -16.4493516
          ],
          [
            -152.2334489,
            -16.4492062
          ],
          [
            -152.2334100,
            -16.4490726
          ],
          [
            -152.2333866,
            -16.4489287
          ],
          [
            -152.2333366,
            -16.4487300
          ],
          [
            -152.2332525,
            -16.4484322
          ],
          [
            -152.2332118,
            -16.4481505
          ],
          [
            -152.2330875,
            -16.4475513
          ],
          [
            -152.2330313,
            -16.4472929
          ],
          [
            -152.2329605,
            -16.4470631
          ],
          [
            -152.2329008,
            -16.4468420
          ],
          [
            -152.2328494,
            -16.4466462
          ],
          [
            -152.2325995,
            -16.4457969
          ],
          [
            -152.2325267,
            -16.4454806
          ],
          [
            -152.2324543,
            -16.4451915
          ],
          [
            -152.2323394,
            -16.4447465
          ],
          [
            -152.2322832,
            -16.4443739
          ],
          [
            -152.2322288,
            -16.4439357
          ],
          [
            -152.2321875,
            -16.4437058
          ],
          [
            -152.2321335,
            -16.4427826
          ],
          [
            -152.2322051,
            -16.4415863
          ],
          [
            -152.2324515,
            -16.4405319
          ],
          [
            -152.2326810,
            -16.4396350
          ],
          [
            -152.2329456,
            -16.4381488
          ],
          [
            -152.2331537,
            -16.4373766
          ]
        ]
      }
    },
    {
      "type": "Feature",
      "properties": {},
      "geometry": {
        "type": "LineString",
        "coordinates": [
          [
            -152.2532046,
            -16.4352303
          ],
          [
            -152.2534227,
            -16.4353345
          ],
          [
            -152.2538838,
            -16.4353011
          ],
          [
            -152.2543328,
            -16.4354736
          ],
          [
            -152.2551996,
            -16.4357924
          ],
          [
            -152.2555604,
            -16.4356059
          ],
          [
            -152.2558092,
            -16.4357690
          ],
          [
            -152.2559402,
            -16.4361020
          ],
          [
            -152.2561868,
            -16.4362050
          ],
          [
            -152.2563759,
            -16.4358312
          ],
          [
            -152.2564332,
            -16.4363330
          ],
          [
            -152.2567009,
            -16.4364268
          ],
          [
            -152.2568763,
            -16.4362972
          ],
          [
            -152.2573850,
            -16.4364670
          ],
          [
            -152.2574953,
            -16.4364950
          ],
          [
            -152.2576560,
            -16.4362854
          ],
          [
            -152.2579470,
            -16.4363253
          ],
          [
            -152.2582251,
            -16.4362946
          ],
          [
            -152.2585832,
            -16.4362537
          ],
          [
            -152.2591178,
            -16.4359478
          ],
          [
            -152.2593993,
            -16.4357308
          ],
          [
            -152.2597027,
            -16.4356412
          ],
          [
            -152.2601530,
            -16.4355710
          ],
          [
            -152.2605453,
            -16.4358924
          ],
          [
            -152.2608280,
            -16.4361116
          ],
          [
            -152.2611043,
            -16.4360772
          ],
          [
            -152.2611996,
            -16.4361266
          ],
          [
            -152.2613395,
            -16.4365967
          ],
          [
            -152.2614813,
            -16.4369657
          ],
          [
            -152.2616118,
            -16.4375639
          ],
          [
            -152.2617566,
            -16.4379908
          ],
          [
            -152.2618321,
            -16.4382149
          ],
          [
            -152.2619753,
            -16.4386147
          ],
          [
            -152.2621390,
            -16.4388500
          ],
          [
            -152.2627238,
            -16.4390377
          ],
          [
            -152.2632422,
            -16.4392806
          ],
          [
            -152.2634305,
            -16.4394392
          ],
          [
            -152.2634691,
            -16.4396570
          ],
          [
            -152.2638145,
            -16.4399132
          ]
        ]
      }
    },
    {
      "type": "Feature",
      "properties": {},
      "geometry": {
        "type": "LineString",
        "coordinates": [
          [
            -152.2640254,
            -16.4400010
          ],
          [
            -152.2641264,
            -16.4403819
          ],
          [
            -152.2643530,
            -16.4405836
          ],
          [
            -152.2647694,
            -16.4406559
          ],
          [
            -152.2656129,
            -16.4405336
          ],
          [
            -152.2662710,
            -16.4409217
          ],
          [
            -152.2665414,
            -16.4411307
          ],
          [
            -152.2668272,
            -16.4414348
          ],
          [
            -152.2671285,
            -16.4416120
          ],
          [
            -152.2673847,
            -16.4417964
          ],
          [
            -152.2674719,
            -16.4419920
          ],
          [
            -152.2676971,
            -16.4423685
          ],
          [
            -152.2681046,
            -16.4426193
          ],
          [
            -152.2682188,
            -16.4428890
          ],
          [
            -152.2683428,
            -16.4433410
          ],
          [
            -152.2685836,
            -16.4435443
          ],
          [
            -152.2687460,
            -16.4441431
          ],
          [
            -152.2688558,
            -16.4444546
          ],
          [
            -152.2690299,
            -16.4447415
          ],
          [
            -152.2688436,
            -16.4451587
          ],
          [
            -152.2688696,
            -16.4454237
          ],
          [
            -152.2688378,
            -16.4458293
          ],
          [
            -152.2685968,
            -16.4464440
          ],
          [
            -152.2685488,
            -16.4466535
          ],
          [
            -152.2688902,
            -16.4465900
          ],
          [
            -152.2689834,
            -16.4467463
          ],
          [
            -152.2687548,
            -16.4469141
          ],
          [
            -152.2691095,
            -16.4468590
          ],
          [
            -152.2686971,
            -16.4470563
          ],
          [
            -152.2688376,
            -16.4473438
          ],
          [
            -152.2690010,
            -16.4475222
          ],
          [
            -152.2695894,
            -16.4478901
          ],
          [
            -152.2701932,
            -16.4480407
          ],
          [
            -152.2705485,
            -16.4481822
          ],
          [
            -152.2711163,
            -16.4484700
          ],
          [
            -152.2715834,
            -16.4489836
          ],
          [
            -152.2719634,
            -16.4491333
          ],
          [
            -152.2728232,
            -16.4490346
          ],
          [
            -152.2733838,
            -16.4489323
          ],
          [
            -152.2739665,
            -16.4488172
          ],
          [
            -152.2746706,
            -16.4482674
          ],
          [
            -152.2748905,
            -16.4482018
          ],
          [
            -152.2749878,
            -16.4488314
          ],
          [
            -152.2745714,
            -16.4492449
          ],
          [
            -152.2742168,
            -16.4499168
          ],
          [
            -152.2740280,
            -16.4504427
          ],
          [
            -152.2740909,
            -16.4507800
          ],
          [
            -152.2741979,
            -16.4511048
          ],
          [
            -152.2738933,
            -16.4516128
          ],
          [
            -152.2740652,
            -16.4520000
          ],
          [
            -152.2741642,
            -16.4525449
          ],
          [
            -152.2736561,
            -16.4527908
          ],
          [
            -152.2729083,
            -16.4527172
          ],
          [
            -152.2727106,
            -16.4527596
          ],
          [
            -152.2724447,
            -16.4527914
          ],
          [
            -152.2721689,
            -16.4528142
          ],
          [
            -152.2718571,
            -16.4527374
          ],
          [
            -152.2715939,
            -16.4526298
          ],
          [
            -152.2714397,
            -16.4526566
          ],
          [
            -152.2712052,
            -16.4527157
          ],
          [
            -152.2710727,
            -16.4527708
          ],
          [
            -152.2709723,
            -16.4528815
          ],
          [
            -152.2706802,
            -16.4529083
          ],
          [
            -152.2703135,
            -16.4527458
          ],
          [
            -152.2694878,
            -16.4526909
          ],
          [
            -152.2691736,
            -16.4526846
          ],
          [
            -152.2688104,
            -16.4524659
          ],
          [
            -152.2682635,
            -16.4521894
          ],
          [
            -152.2679985,
            -16.4520678
          ],
          [
            -152.2676472,
            -16.4518303
          ],
          [
            -152.2671229,
            -16.4515094
          ],
          [
            -152.2664646,
            -16.4511564
          ],
          [
            -152.2661797,
            -16.4508846
          ],
          [
            -152.2657361,
            -16.4504874
          ],
          [
            -152.2653711,
            -16.4502915
          ],
          [
            -152.2651359,
            -16.4501022
          ],
          [
            -152.2648236,
            -16.4501550
          ],
          [
            -152.2645106,
            -16.4500489
          ],
          [
            -152.2642021,
            -16.4499718
          ],
          [
            -152.2639244,
            -16.4500695
          ],
          [
            -152.2634595,
            -16.4500125
          ],
          [
            -152.2632052,
            -16.4500456
          ],
          [
            -152.2627643,
            -16.4501706
          ],
          [
            -152.2625148,
            -16.4503005
          ],
          [
            -152.2620103,
            -16.4506212
          ],
          [
            -152.2617538,
            -16.4509131
          ],
          [
            -152.2616260,
            -16.4511083
          ],
          [
            -152.2614786,
            -16.4512920
          ],
          [
            -152.2611988,
            -16.4514165
          ],
          [
            -152.2607657,
            -16.4514574
          ],
          [
            -152.2606077,
            -16.4513513
          ],
          [
            -152.2602341,
            -16.4514145
          ],
          [
            -152.2600276,
            -16.4515508
          ],
          [
            -152.2597951,
            -16.4516148
          ],
          [
            -152.2597753,
            -16.4518057
          ],
          [
            -152.2593503,
            -16.4523172
          ],
          [
            -152.2592660,
            -16.4525632
          ],
          [
            -152.2591655,
            -16.4527403
          ],
          [
            -152.2590319,
            -16.4528638
          ],
          [
            -152.2589956,
            -16.4530288
          ],
          [
            -152.2590996,
            -16.4531284
          ],
          [
            -152.2589057,
            -16.4533462
          ],
          [
            -152.2586952,
            -16.4533804
          ],
          [
            -152.2587625,
            -16.4534870
          ],
          [
            -152.2586769,
            -16.4536835
          ],
          [
            -152.2586094,
            -16.4538704
          ],
          [
            -152.2585474,
            -16.4540224
          ],
          [
            -152.2583900,
            -16.4541137
          ],
          [
            -152.2581935,
            -16.4541289
          ],
          [
            -152.2583479,
            -16.4543130
          ],
          [
            -152.2581230,
            -16.4543816
          ],
          [
            -152.2578028,
            -16.4544512
          ],
          [
            -152.2578525,
            -16.4542675
          ],
          [
            -152.2577642,
            -16.4541440
          ],
          [
            -152.2575795,
            -16.4543102
          ],
          [
            -152.2573310,
            -16.4543711
          ],
          [
            -152.2569428,
            -16.4542711
          ],
          [
            -152.2567914,
            -16.4543470
          ],
          [
            -152.2562991,
            -16.4542665
          ],
          [
            -152.2558957,
            -16.4546094
          ],
          [
            -152.2554913,
            -16.4547470
          ],
          [
            -152.2551444,
            -16.4546665
          ],
          [
            -152.2548935,
            -16.4549216
          ],
          [
            -152.2545863,
            -16.4552024
          ],
          [
            -152.2543905,
            -16.4555472
          ],
          [
            -152.2537259,
            -16.4560244
          ],
          [
            -152.2534654,
            -16.4562572
          ],
          [
            -152.2537277,
            -16.4565109
          ],
          [
            -152.2539740,
            -16.4564979
          ],
          [
            -152.2535069,
            -16.4566198
          ]
        ]
      }
    },
    {
      "type": "Feature",
      "properties": {},
      "geometry": {
        "type": "LineString",
        "coordinates": [
          [
            -152.2887421,
            -16.4263907
          ],
          [
            -152.2890115,
            -16.4270247
          ],
          [
            -152.2891839,
            -16.4273247
          ],
          [
            -152.2892157,
            -16.4275097
          ],
          [
            -152.2893851,
            -16.4280404
          ],
          [
            -152.2896168,
            -16.4289734
          ],
          [
            -152.2897915,
            -16.4297332
          ],
          [
            -152.2899795,
            -16.4306233
          ],
          [
            -152.2900684,
            -16.4310366
          ],
          [
            -152.2901242,
            -16.4313270
          ],
          [
            -152.2901382,
            -16.4315092
          ],
          [
            -152.2901661,
            -16.4316697
          ],
          [
            -152.2902022,
            -16.4318351
          ],
          [
            -152.2903183,
            -16.4325628
          ],
          [
            -152.2903228,
            -16.4328495
          ],
          [
            -152.2903129,
            -16.4332153
          ],
          [
            -152.2904394,
            -16.4339435
          ],
          [
            -152.2907194,
            -16.4352145
          ],
          [
            -152.2908185,
            -16.4356529
          ],
          [
            -152.2910246,
            -16.4366695
          ],
          [
            -152.2912526,
            -16.4375569
          ],
          [
            -152.2916539,
            -16.4387597
          ],
          [
            -152.2920423,
            -16.4401145
          ],
          [
            -152.2923340,
            -16.4411129
          ],
          [
            -152.2927678,
            -16.4422901
          ],
          [
            -152.2931106,
            -16.4432837
          ],
          [
            -152.2934703,
            -16.4442476
          ],
          [
            -152.2937372,
            -16.4449859
          ],
          [
            -152.2941156,
            -16.4458365
          ],
          [
            -152.2943307,
            -16.4462883
          ],
          [
            -152.2944989,
            -16.4466760
          ],
          [
            -152.2946421,
            -16.4471455
          ],
          [
            -152.2948471,
            -16.4476925
          ],
          [
            -152.2950443,
            -16.4483039
          ],
          [
            -152.2950963,
            -16.4486391
          ],
          [
            -152.2951878,
            -16.4489880
          ],
          [
            -152.2952554,
            -16.4492481
          ],
          [
            -152.2953408,
            -16.4498286
          ],
          [
            -152.2954932,
            -16.4503051
          ],
          [
            -152.2955354,
            -16.4505313
          ],
          [
            -152.2955846,
            -16.4507895
          ],
          [
            -152.2956537,
            -16.4515412
          ],
          [
            -152.2957722,
            -16.4530285
          ],
          [
            -152.2957374,
            -16.4547042
          ],
          [
            -152.2955897,
            -16.4557822
          ],
          [
            -152.2953702,
            -16.4565171
          ],
          [
            -152.2952438,
            -16.4568279
          ],
          [
            -152.2950114,
            -16.4572909
          ],
          [
            -152.2940353,
            -16.4586265
          ],
          [
            -152.2932186,
            -16.4593730
          ],
          [
            -152.2927567,
            -16.4597512
          ],
          [
            -152.2910552,
            -16.4602971
          ],
          [
            -152.2909152,
            -16.4603510
          ],
          [
            -152.2905796,
            -16.4604036
          ],
          [
            -152.2903870,
            -16.4603153
          ],
          [
            -152.2898775,
            -16.4601229
          ],
          [
            -152.2899385,
            -16.4606638
          ],
          [
            -152.2897827,
            -16.4609265
          ],
          [
            -152.2896724,
            -16.4606981
          ],
          [
            -152.2896026,
            -16.4602750
          ],
          [
            -152.2892073,
            -16.4602586
          ],
          [
            -152.2868111,
            -16.4598906
          ],
          [
            -152.2855149,
            -16.4598242
          ],
          [
            -152.2842865,
            -16.4597569
          ],
          [
            -152.2834713,
            -16.4597450
          ],
          [
            -152.2828375,
            -16.4594536
          ],
          [
            -152.2819325,
            -16.4578232
          ],
          [
            -152.2808988,
            -16.4555483
          ],
          [
            -152.2809109,
            -16.4550325
          ],
          [
            -152.2807618,
            -16.4544126
          ],
          [
            -152.2806635,
            -16.4538772
          ]
        ]
      }
    },
    {
      "type": "Feature",
      "properties": {},
      "geometry": {
        "type": "LineString",
        "coordinates": [
          [
            -152.2741179,
            -16.4261588
          ],
          [
            -152.2736566,
            -16.4260298
          ],
          [
            -152.2732074,
            -16.4258843
          ],
          [
            -152.2726691,
            -16.4258084
          ],
          [
            -152.2719797,
            -16.4257923
          ],
          [
            -152.2713475,
            -16.4258679
          ],
          [
            -152.2708754,
            -16.4259939
          ],
          [
            -152.2707607,
            -16.4260024
          ],
          [
            -152.2706388,
            -16.4260498
          ],
          [
            -152.2704885,
            -16.4260666
          ],
          [
            -152.2703854,
            -16.4261686
          ],
          [
            -152.2702659,
            -16.4261639
          ],
          [
            -152.2702105,
            -16.4262396
          ],
          [
            -152.2701400,
            -16.4263330
          ],
          [
            -152.2697924,
            -16.4265139
          ],
          [
            -152.2695358,
            -16.4267017
          ],
          [
            -152.2694567,
            -16.4267967
          ],
          [
            -152.2693048,
            -16.4268603
          ],
          [
            -152.2691134,
            -16.4269273
          ],
          [
            -152.2688870,
            -16.4270388
          ],
          [
            -152.2685223,
            -16.4272046
          ],
          [
            -152.2679244,
            -16.4269650
          ],
          [
            -152.2675683,
            -16.4265545
          ],
          [
            -152.2673735,
            -16.4263291
          ],
          [
            -152.2671085,
            -16.4261204
          ],
          [
            -152.2668496,
            -16.4259887
          ],
          [
            -152.2666640,
            -16.4259574
          ],
          [
            -152.2664360,
            -16.4259817
          ],
          [
            -152.2662370,
            -16.4260594
          ],
          [
            -152.2659234,
            -16.4260825
          ],
          [
            -152.2656445,
            -16.4259927
          ],
          [
            -152.2652556,
            -16.4254869
          ],
          [
            -152.2648723,
            -16.4249118
          ],
          [
            -152.2646627,
            -16.4245381
          ],
          [
            -152.2641886,
            -16.4237970
          ],
          [
            -152.2641144,
            -16.4226893
          ],
          [
            -152.2643509,
            -16.4217838
          ],
          [
            -152.2647580,
            -16.4212441
          ],
          [
            -152.2651387,
            -16.4204548
          ],
          [
            -152.2653856,
            -16.4203510
          ],
          [
            -152.2654359,
            -16.4203071
          ],
          [
            -152.2654741,
            -16.4201980
          ],
          [
            -152.2655854,
            -16.4201639
          ],
          [
            -152.2656634,
            -16.4200324
          ],
          [
            -152.2658928,
            -16.4199720
          ],
          [
            -152.2657826,
            -16.4198306
          ],
          [
            -152.2654914,
            -16.4197097
          ],
          [
            -152.2652453,
            -16.4196281
          ],
          [
            -152.2654925,
            -16.4195433
          ],
          [
            -152.2658399,
            -16.4197000
          ],
          [
            -152.2659453,
            -16.4198168
          ],
          [
            -152.2660205,
            -16.4199666
          ],
          [
            -152.2659571,
            -16.4200892
          ],
          [
            -152.2658848,
            -16.4201331
          ],
          [
            -152.2659207,
            -16.4202481
          ],
          [
            -152.2657051,
            -16.4203813
          ],
          [
            -152.2659090,
            -16.4203594
          ],
          [
            -152.2659947,
            -16.4204694
          ],
          [
            -152.2662286,
            -16.4202253
          ],
          [
            -152.2662891,
            -16.4201317
          ],
          [
            -152.2662241,
            -16.4200108
          ],
          [
            -152.2663442,
            -16.4200984
          ],
          [
            -152.2665050,
            -16.4200910
          ],
          [
            -152.2666164,
            -16.4201402
          ],
          [
            -152.2666757,
            -16.4202779
          ],
          [
            -152.2668434,
            -16.4202904
          ],
          [
            -152.2668560,
            -16.4202635
          ],
          [
            -152.2669400,
            -16.4201790
          ],
          [
            -152.2670463,
            -16.4201228
          ],
          [
            -152.2672355,
            -16.4202795
          ],
          [
            -152.2674386,
            -16.4203888
          ],
          [
            -152.2676839,
            -16.4204638
          ],
          [
            -152.2680991,
            -16.4205913
          ],
          [
            -152.2686250,
            -16.4206684
          ],
          [
            -152.2691152,
            -16.4207596
          ],
          [
            -152.2693789,
            -16.4208183
          ],
          [
            -152.2698827,
            -16.4209789
          ],
          [
            -152.2703867,
            -16.4210998
          ],
          [
            -152.2708279,
            -16.4211961
          ],
          [
            -152.2713438,
            -16.4213076
          ],
          [
            -152.2719947,
            -16.4214146
          ],
          [
            -152.2729009,
            -16.4216100
          ],
          [
            -152.2734010,
            -16.4216682
          ],
          [
            -152.2743948,
            -16.4219114
          ],
          [
            -152.2748281,
            -16.4220599
          ],
          [
            -152.2753890,
            -16.4221815
          ],
          [
            -152.2760075,
            -16.4223205
          ],
          [
            -152.2766059,
            -16.4224465
          ],
          [
            -152.2770058,
            -16.4224612
          ],
          [
            -152.2771492,
            -16.4225381
          ],
          [
            -152.2775805,
            -16.4225976
          ],
          [
            -152.2779012,
            -16.4226850
          ],
          [
            -152.2781186,
            -16.4227557
          ],
          [
            -152.2788033,
            -16.4228511
          ],
          [
            -152.2793508,
            -16.4230505
          ],
          [
            -152.2796046,
            -16.4231123
          ],
          [
            -152.2798938,
            -16.4232014
          ],
          [
            -152.2803763,
            -16.4232612
          ],
          [
            -152.2808203,
            -16.4233323
          ],
          [
            -152.2813664,
            -16.4235138
          ],
          [
            -152.2815491,
            -16.4235470
          ],
          [
            -152.2818488,
            -16.4236450
          ],
          [
            -152.2821915,
            -16.4236723
          ],
          [
            -152.2826065,
            -16.4238251
          ],
          [
            -152.2830153,
            -16.4238856
          ],
          [
            -152.2838178,
            -16.4240828
          ],
          [
            -152.2845174,
            -16.4242019
          ],
          [
            -152.2848294,
            -16.4243206
          ],
          [
            -152.2854716,
            -16.4245436
          ],
          [
            -152.2858151,
            -16.4246506
          ],
          [
            -152.2862058,
            -16.4247768
          ],
          [
            -152.2863794,
            -16.4248554
          ],
          [
            -152.2868430,
            -16.4250304
          ],
          [
            -152.2870303,
            -16.4250956
          ],
          [
            -152.2872410,
            -16.4252047
          ],
          [
            -152.2876528,
            -16.4254248
          ],
          [
            -152.2879324,
            -16.4255661
          ],
          [
            -152.2882698,
            -16.4258611
          ],
          [
            -152.2883739,
            -16.4259861
          ],
          [
            -152.2886864,
            -16.4262826
          ]
        ]
      }
    }
  ]
}
